"ein","name","address","city","state","zip","ntee","ntee1","add"
10810546,"","","","","","","",",,"
10950580,"","","","","","","",",,"
161558160,"CHINESE BIOLOGICAL INVESTIGATORS SOCIETY INC","C/O JING YANG 4694 BRYSON TERRACE","SAN DIEGO","CA","93130-0000","I03","I","C/O JING YANG 4694 BRYSON TERRACE,SAN DIEGO,93130-0000"
200303774,"LATINO DIABETES ASSOCIATION","PO BOX 1347","MONTEBELLO","CA","90640-1347","G70","G","PO BOX 1347,MONTEBELLO,90640-1347"
200443243,"ONE HEART WORLD-WIDE","1818 PACHECO ST","SAN FRANCISCO","CA","94116-1223","E0570","E","1818 PACHECO ST,SAN FRANCISCO,94116-1223"
200616241,"SRI LANKA MEDICAL ASSOCIATION NORTH AMERICA INC","827 LINDA VISTA AVE","PASADENA","CA","91103-2739","G90","G","827 LINDA VISTA AVE,PASADENA,91103-2739"
200834503,"NINOS DEL LAGO","437 W DUARTE RD APT 9","ARCADIA","CA","91007-9102","N20","N","437 W DUARTE RD APT 9,ARCADIA,91007-9102"
201082976,"NEVADA ASSOCIATION OF HISPANIC REAL ESTATE PROFESSIONALS FOUNDATION","2375 NORTHSIDE DR","SAN DIEGO","CA","92108-2703","L03","L","2375 NORTHSIDE DR,SAN DIEGO,92108-2703"
201489985,"VIETNAMESE AMERICAN YOUTH ALLIANCE CORP","PO BOX 711912","SAN DIEGO","CA","92171-1912","O01","O","PO BOX 711912,SAN DIEGO,92171-1912"
201551273,"TIBETAN AID FOUNDATION INC","PO BOX 1112","OJAI","CA","93024-1112","E70","E","PO BOX 1112,OJAI,93024-1112"
201719535,"ASIANWEEK FOUNDATION","809 SACRAMENTO ST","SAN FRANCISCO","CA","94108-2116","P84","P","809 SACRAMENTO ST,SAN FRANCISCO,94108-2116"
201948310,"LA ALIANZA COMUNITARIA TRANSNACIONAL ACT","4625 44TH ST ROOM 3","SACRAMENTO","CA","95820-3909","P84","P","4625 44TH ST ROOM 3,SACRAMENTO,95820-3909"
202559356,"LATINO SOCIAL JUSTICE FOUNDATION","5326 E BEVERLY BLVD","LOS ANGELES","CA","90022-2104","I02","I","5326 E BEVERLY BLVD,LOS ANGELES,90022-2104"
202559651,"GRANTMAKERS CONCERNED WITH IMMIGRANTS AND REFUGEES","PO BOX 1100","SEBASTOPOL","CA","95473-1100","P84","P","PO BOX 1100,SEBASTOPOL,95473-1100"
202730511,"CALIFORNIA HISPANIC OSTEOPOROSIS FOUNDATION INC","300 S A ST","OXNARD","CA","93030-5822","G50","G","300 S A ST,OXNARD,93030-5822"
202892282,"MEXICO CARAVAN MINISTRIES","555 SATURN BLVD STE B # 510","SAN DIEGO","CA","92154-4798","P84","P","555 SATURN BLVD STE B # 510,SAN DIEGO,92154-4798"
203003912,"EL CENTRO REGIONAL MEDICAL CENTER FOUNDATION","PO BOX 4245","EL CENTRO","CA","92244-4245","E11","E","PO BOX 4245,EL CENTRO,92244-4245"
203663051,"DIAMOND BAR CHINESE AMERICAN ASSOC","1142 S DIAMOND BAR BLVD","DIAMOND BAR","CA","91765-2203","I03","I","1142 S DIAMOND BAR BLVD,DIAMOND BAR,91765-2203"
203953094,"VIET AID FUND","PO BOX 8693","FOUNTAIN VLY","CA","92728-8693","P20","P","PO BOX 8693,FOUNTAIN VLY,92728-8693"
204251913,"CHINESE COMMUNITY HEALTH RESOURCECENTER","728 PACIFIC AVENUE","SAN FRANCISCO","CA","94133-4457","E70","E","728 PACIFIC AVENUE,SAN FRANCISCO,94133-4457"
204469790,"CENTER FOR LAO STUDIES","PO BOX 843","S SAN FRAN","CA","94083-0843","P0584","P","PO BOX 843,S SAN FRAN,94083-0843"
204863071,"AMIGAS PUNTO COM","1113 CARLOS CANYON DR","CHULA VISTA","CA","91910-7951","I71","I","1113 CARLOS CANYON DR,CHULA VISTA,91910-7951"
204958325,"SRV CHINESE SCHOOL","8355 SATURN PARK DR","SAN RAMON","CA","94582-5140","P84","P","8355 SATURN PARK DR,SAN RAMON,94582-5140"
205111707,"CHINA CALIFORNIA HEART WATCH","28251 SILVERADO CANYON RD UNIT 517","SILVERADO","CA","92676-0810","G43","G","28251 SILVERADO CANYON RD UNIT 517,SILVERADO,92676-0810"
20534903,"","","","","","","",",,"
208835997,"ASIAN BUSINESS CENTER","767 N HILL STREET","LOS ANGELES","CA","90012-2343","P84","P","767 N HILL STREET,LOS ANGELES,90012-2343"
237031625,"SOUTHERN CALIFORNIA INDIAN CENTER INC","10175 SLATER AVE STE 150","FOUNTAIN VLY","CA","92708-4717","P84","P","10175 SLATER AVE STE 150,FOUNTAIN VLY,92708-4717"
237048961,"SALUD","176 S PALM DR","BLYTHE","CA","92225-2536","E86","E","176 S PALM DR,BLYTHE,92225-2536"
237088205,"UNITED INDIAN HEALTH SERVICES INC","1600 WEEOT WAY","ARCATA","CA","95521-4734","E32","E","1600 WEEOT WAY,ARCATA,95521-4734"
237089337,"JAPANESE AMERICAN RELIGIOUS FEDERATION HOUSING INC","1615 SUTTER STREET","SAN FRANCISCO","CA","94109-5255","L20","L","1615 SUTTER STREET,SAN FRANCISCO,94109-5255"
237115636,"JAPANESE COMMUNITY YOUTH SERVICE","588 N 4TH ST","SAN JOSE","CA","95112-5311","O20","O","588 N 4TH ST,SAN JOSE,95112-5311"
237126354,"CHINATOWN COMMUNITY CHILDRENS CENTER","979 CLAY ST","SAN FRANCISCO","CA","94108-1527","P33","P","979 CLAY ST,SAN FRANCISCO,94108-1527"
237130295,"YA-KA-AMA INDIAN EDUCATION & DEVELOPMENT","7465 STEVE OLSON LN","FORESTVILLE","CA","95436-9112","P84","P","7465 STEVE OLSON LN,FORESTVILLE,95436-9112"
237135928,"NATIVE AMERICAN HEALTH CENTER INC","1151 HARBOR BAY PKWY","ALAMEDA","CA","94502-6540","E32","E","1151 HARBOR BAY PKWY,ALAMEDA,94502-6540"
237181456,"CENTRO LEGAL DE LA RAZA INC","3022 INTERNATIONAL BLVD STE 410","OAKLAND","CA","94601-2229","I80","I","3022 INTERNATIONAL BLVD STE 410,OAKLAND,94601-2229"
237262124,"SAN DIEGO CHINESE CENTER","4550 KEARNY VILLA RD STE 212","SAN DIEGO","CA","92123-1565","P84","P","4550 KEARNY VILLA RD STE 212,SAN DIEGO,92123-1565"
237292240,"KOREAN AMERICAN YOUTH FOUNDATION INC","3550 WILSHIRE BLVD STE 640","LOS ANGELES","CA","90010-2437","N20","N","3550 WILSHIRE BLVD STE 640,LOS ANGELES,90010-2437"
237380370,"LAS AMIGAS DE LAS LOMAS INC","904 SLIVER SPUR ROAD PMB696","ROLLING HILLS ESTATES","CA","90274-3800","E1120","E","904 SLIVER SPUR ROAD PMB696,ROLLING HILLS ESTATES,90274-3800"
237383894,"COLUMBIAN RETIREMENT HOME INC","230 8TH ST","MARYSVILLE","CA","95901-5350","L22","L","230 8TH ST,MARYSVILLE,95901-5350"
237394580,"ASIAN NEIGHBORHOOD DESIGN INC","1245 HOWARD ST","SAN FRANCISCO","CA","94103-2711","J22","J","1245 HOWARD ST,SAN FRANCISCO,94103-2711"
237394584,"AMERICAN INDIAN CHILD RESOURCE CENTER","522 GRAND AVE","OAKLAND","CA","94610-3515","P85","P","522 GRAND AVE,OAKLAND,94610-3515"
237404756,"CHINESE PROGRESSIVE ASSOCIATION","1042 GRANT AVE STE 5","SAN FRANCISCO","CA","94133-5025","E70","E","1042 GRANT AVE STE 5,SAN FRANCISCO,94133-5025"
251902459,"TUOLUMNE ME-WUK INDIAN HEALTH CENTER INC","18880 CHERRY VALLEY BLVD","TUOLUMNE","CA","95379-9506","P84","P","18880 CHERRY VALLEY BLVD,TUOLUMNE,95379-9506"
260016331,"CASA DE AMISTAD CENTRO DE ENSENANZA","120 STEVENS AVE","SOLANA BEACH","CA","92075-2039","P20","P","120 STEVENS AVE,SOLANA BEACH,92075-2039"
260079897,"EL CENTRO COMMUNITY SENIOR CLUB","PO BOX 2894","EL CENTRO","CA","92244-2894","L22","L","PO BOX 2894,EL CENTRO,92244-2894"
260456976,"KOREAN-AMERICAN ASSOCIATION OF REALTORS AND LENDERS OF NORTHERN C","415 S MURPHY AVE","SUNNYVALE","CA","94086-6115","L03","L","415 S MURPHY AVE,SUNNYVALE,94086-6115"
260624777,"TOTAL INSTITUTE FOR DEVELOPMENT ANDEAST ASIAN STRATEGIES INC","809 CUESTA DR STE B","MOUNTAIN VIEW","CA","94040-3669","P84","P","809 CUESTA DR STE B,MOUNTAIN VIEW,94040-3669"
260736033,"SOUTH ASIAN HELPLINE AND REFERRALAGENCY","17100 PIONEER BLVD STE 260","ARTESIA","CA","90701-2715","P84","P","17100 PIONEER BLVD STE 260,ARTESIA,90701-2715"
260895114,"CHINESE AMERICAN COALITION FORCOMPASSIONATE CARE CACCC","PO BOX 276","CUPERTINO","CA","95015-0276","E60","E","PO BOX 276,CUPERTINO,95015-0276"
261198923,"US-MEXICO UNITED FOUNDATION INC","16916 SOLANA LN","CANYON CNTRY","CA","91351-1459","K30","K","16916 SOLANA LN,CANYON CNTRY,91351-1459"
261685077,"THE CENTER FOR TIBETAN QIGONG-NAPA VALLEY","4456 MOFFITT DR","NAPA","CA","94558-1742","P84","P","4456 MOFFITT DR,NAPA,94558-1742"
262089867,"HISPANIC BUSINESS EDUCATION NETWORK","333 S VAN NESS AVE","SAN FRANCISCO","CA","94103-3627","P84","P","333 S VAN NESS AVE,SAN FRANCISCO,94103-3627"
262213868,"CALIFORNIA LATINAS FOR REPRODUCTIVE JUSTICE","533 GLENDALE BLVD STE 101405","LOS ANGELES","CA","90026-7269","E70","E","533 GLENDALE BLVD STE 101405,LOS ANGELES,90026-7269"
263093411,"CALIFORNIA LATINO SCHOOL BOARDS ASSOCIATION","PO BOX 7624","MORENO VALLEY","CA","92552-7624","P84","P","PO BOX 7624,MORENO VALLEY,92552-7624"
263230127,"HOUSE OF INDIA A CALIFORNIA PUBLIC BENEFIT CORPORATION","PO BOX 451","DEL MAR","CA","92014-0451","L21","L","PO BOX 451,DEL MAR,92014-0451"
263266839,"CLUB DE NINOS Y NINAS DE MEXICO INC","700 FRONT STREET","SAN DIEGO","CA","92101-6000","O23","O","700 FRONT STREET,SAN DIEGO,92101-6000"
263506554,"ASIAN HEALTH SERVICES FOUNDATION","818 WEBSTER ST","OAKLAND","CA","94607-4220","E11","E","818 WEBSTER ST,OAKLAND,94607-4220"
264002102,"LOVING SAVIOR LUTHERAN CHINESE SCHOOL","14816 PEYTON DR","CHINO HILLS","CA","91709-2073","P84","P","14816 PEYTON DR,CHINO HILLS,91709-2073"
264153626,"CALIFORNIA INDIAN HERITAGE CENTER FOUNDATION INC","2618 K ST","SACRAMENTO","CA","95816-5104","P84","P","2618 K ST,SACRAMENTO,95816-5104"
264335169,"CHINESE AMERICAN SCHOOLS ALAMEDA","16 MORNING VIEW DR","NEWPORT COAST","CA","","P84","P","16 MORNING VIEW DR,NEWPORT COAST,"
264603731,"SOUTH ASIAN BEHAVIORAL HEALTH AND TRAINING FOUNDATION","2285 MOUNT DIABLO ST","CONCORD","CA","94520-2211","F01","F","2285 MOUNT DIABLO ST,CONCORD,94520-2211"
270088947,"HUMBOLDT-DEL NORTE TIMING ASSOCIATION INC","PO BOX 1211","EUREKA","CA","95502-1211","I60","I","PO BOX 1211,EUREKA,95502-1211"
270600326,"IMMIGRANTS CHARITABLE FOUNDATION","5101 SANTA MONICA BLVD STE 9","LOS ANGELES","CA","90029-2481","P84","P","5101 SANTA MONICA BLVD STE 9,LOS ANGELES,90029-2481"
270783993,"AMIGOS DE ALEJANDRO INC","510 W MAIN ST","EL CENTRO","CA","92243-2900","P20","P","510 W MAIN ST,EL CENTRO,92243-2900"
271090062,"SCV CHINESE SCHOOL","32210 VISTA POINTE PL","CASTAIC","CA","91384-4103","P84","P","32210 VISTA POINTE PL,CASTAIC,91384-4103"
271944682,"ASIAN REAL ESTATE ASSOCIATION OF AMERICA EDUCATION FOUNDATION","3990 OLD TOWN AVE","SAN DIEGO","CA","92110-2930","L03","L","3990 OLD TOWN AVE,SAN DIEGO,92110-2930"
273087079,"KHMER GIRLS IN ACTION","1085 REDONDO AVE","LONG BEACH","CA","90804-3928","O22","O","1085 REDONDO AVE,LONG BEACH,90804-3928"
273170835,"ECOVILLAGE THE COMMUNITY LIVING OF HAITI INC","PO BOX 9765","MORENO VALLEY","CA","92552-1765","P70","P","PO BOX 9765,MORENO VALLEY,92552-1765"
273410736,"LATINO FOOD CENTER INC","1910 STARVALE RD","GLENDALE","CA","91207-1050","K30","K","1910 STARVALE RD,GLENDALE,91207-1050"
273414257,"SAN DIEGO ASIAN AMERICAN SPORTS CLUB","10373 WESTWARD CT","SAN DIEGO","CA","92131-6152","N60","N","10373 WESTWARD CT,SAN DIEGO,92131-6152"
273540724,"BRAZIL STAR S SOCCER CLUB","01 11924 MAYFIELD AVE","LOS ANGELES","CA","90049-0000","N64","N","01 11924 MAYFIELD AVE,LOS ANGELES,90049-0000"
273630527,"NATIONAL CONFERENCE OF VIETNAMESE AMERICAN ATTORNEYS","772 N 1ST ST","SAN JOSE","CA","95112-6302","I0380","I","772 N 1ST ST,SAN JOSE,95112-6302"
273788371,"SALUD DIGNA INC","6001 PACIFIC BLVD","HUNTINGTON PARK","CA","90255-2947","E32","E","6001 PACIFIC BLVD,HUNTINGTON PARK,90255-2947"
274029163,"ARC ASIA RESEARCH CENTER FOUNDATION","27611 LA PAZ RD STE A8","LAGUNA NIGUEL","CA","92677-3999","P82","P","27611 LA PAZ RD STE A8,LAGUNA NIGUEL,92677-3999"
274034092,"RIVERSIDE HUA XIA CHINESE SCHOOL INC","PO BOX 5153","RIVERSIDE","CA","92517-5153","P84","P","PO BOX 5153,RIVERSIDE,92517-5153"
274115634,"VIET DREAMS","PO BOX 360624","MILPITAS","CA","95036-0624","P20","P","PO BOX 360624,MILPITAS,95036-0624"
274281557,"LATINO DONOR COLLABORATIVE INC","2129 COLDWATER CANYON DR","BEVERLY HILLS","CA","90210-1734","J40","J","2129 COLDWATER CANYON DR,BEVERLY HILLS,90210-1734"
274377165,"SARATOGA VISION CHINESE SCHOOL","19901 MERRIBROOK DR","SARATOGA","CA","95070-5445","G41","G","19901 MERRIBROOK DR,SARATOGA,95070-5445"
300505945,"THIEN QUANG VIETNAMESE BUDDHIST MEDITATION MONASTERY","8042 HARZARD AVE","MIDWAY CITY","CA","92655-0000","P50","P","8042 HARZARD AVE,MIDWAY CITY,92655-0000"
300830964,"FRIENDS OF CHINA CAMP INC","101 PEACOCK TRAIL GAP","SAN RAFAEL","CA","94901-0000","N1120","N","101 PEACOCK TRAIL GAP,SAN RAFAEL,94901-0000"
300991279,"SACRAMENTO VIETNAMESE MEDICAL DENTAL AND PHARMACY ASSOCIATION","9575 LAGUNA SPRINGS DRIVE","ELK GROVE","CA","95758-8206","E70","E","9575 LAGUNA SPRINGS DRIVE,ELK GROVE,95758-8206"
311602404,"LATINA LAWYERS BAR ASSOCIATION","PO BOX 86488","LOS ANGELES","CA","90086-0488","I03","I","PO BOX 86488,LOS ANGELES,90086-0488"
320308477,"FILIPINO MIGRANT CENTER","2125 SANTA FE AVE","LONG BEACH","CA","90810-3547","P84","P","2125 SANTA FE AVE,LONG BEACH,90810-3547"
330102667,"INLAND EMPIRE LATINO LAWYERS ASSOCIATION INC","2060 UNIVERSITY AVE STE 113","RIVERSIDE","CA","92507-5210","I80","I","2060 UNIVERSITY AVE STE 113,RIVERSIDE,92507-5210"
330209754,"WALKING SHIELD INC","3100 AIRWAY AVE STE 118","COSTA MESA","CA","92626-4604","P84","P","3100 AIRWAY AVE STE 118,COSTA MESA,92626-4604"
330271323,"ORANGE COUNTY JAPANESE AMERICAN ASSOCIATION","17332 IRVINE BLVD STE 110","TUSTIN","CA","92780-3021","P84","P","17332 IRVINE BLVD STE 110,TUSTIN,92780-3021"
330383691,"ASIAN YOUTH CENTER","100 CLARY AVE","SAN GABRIEL","CA","91776-1374","P30","P","100 CLARY AVE,SAN GABRIEL,91776-1374"
330396096,"ASIAN AMERICAN SENIOR CITIZENS SERVICE CENTER INC","850 N BIRCH ST","SANTA ANA","CA","92701-3405","P81","P","850 N BIRCH ST,SANTA ANA,92701-3405"
330413664,"KOREAN-AMERICAN SENIORS ASSOCIATION OF OC","9884 GARDEN GROVE BLVD","GARDEN GROVE","CA","92844-1643","P81","P","9884 GARDEN GROVE BLVD,GARDEN GROVE,92844-1643"
330431719,"HERMANDAD MEXICANA NACIONAL","11559 SHERMAN WAY","NORTH HOLLYWOOD","CA","91605-5883","P84","P","11559 SHERMAN WAY,NORTH HOLLYWOOD,91605-5883"
330438561,"HANMI FAMILY COUNSELING CENTER INC","12362 BEACH BLVD STE 1","STANTON","CA","90680-3944","P46","P","12362 BEACH BLVD STE 1,STANTON,90680-3944"
330453565,"ASIAN GANG INVESTIGATORS ASSOCIATION OF CALIFORNIA","2648 E WORKMAN AVE STE 3001 # 218","WEST COVINA","CA","91791-1604","I0321","I","2648 E WORKMAN AVE STE 3001 # 218,WEST COVINA,91791-1604"
330562943,"LATINO CENTER FOR PREVENTION & ACTION IN HEALTH & WELFARE","450 W 4TH STREET","SANTA ANA","CA","92701-4562","P84","P","450 W 4TH STREET,SANTA ANA,92701-4562"
330572113,"RIVERSIDE CNTY LATINO COMMISISON ON ALCOHOL & DRUG ABUSE SERVICES INC","1612 1ST ST","COACHELLA","CA","92236-1407","F20","F","1612 1ST ST,COACHELLA,92236-1407"
330608166,"SOUTH ASIAN NETWORK INC","18173 PIONEER BLVD STE I","ARTESIA","CA","90701-3986","P84","P","18173 PIONEER BLVD STE I,ARTESIA,90701-3986"
330662914,"EL CENTRO POLICE ATHLETIC LEAGUE","1100 N 4TH ST","EL CENTRO","CA","92243-1519","O20","O","1100 N 4TH ST,EL CENTRO,92243-1519"
330703131,"CENTRO C H A INC","205 E ANAHEIM ST","LONG BEACH","CA","90813-3110","P84","P","205 E ANAHEIM ST,LONG BEACH,90813-3110"
330798087,"SOUTHERN CALIFORNIA AMERICAN INDIAN RESOURCE CENTER INC","239 E MAIN ST","EL CAJON","CA","92020-3911","P84","P","239 E MAIN ST,EL CAJON,92020-3911"
330798803,"NATIONAL COUNCIL OF URBAN INDIAN HEALTH","2561 1ST AVE","SAN DIEGO","CA","92103-6571","P84","P","2561 1ST AVE,SAN DIEGO,92103-6571"
330861893,"STREET CHILDREN INTERNATIONAL","PO BOX 7686","CAPO BEACH","CA","92624-7686","O55","O","PO BOX 7686,CAPO BEACH,92624-7686"
330901347,"LATINO NETWORK","PO BOX 20615","RIVERSIDE","CA","92516-0615","P80","P","PO BOX 20615,RIVERSIDE,92516-0615"
330906866,"HURTT FAMILY HEALTH CLINIC INC","1 HOPE DR","TUSTIN","CA","92782-0221","F32","F","1 HOPE DR,TUSTIN,92782-0221"
330986880,"CENTRO MEDICO COMMUNITY CLINIC INC","1307 W 6TH ST STE 113","CORONA","CA","92882-1642","E32","E","1307 W 6TH ST STE 113,CORONA,92882-1642"
331095784,"NATIONAL ASIAN AMERICAN COALITION","15 SOUTHGATE AVE STE 200","DALY CITY","CA","94015-1414","P20","P","15 SOUTHGATE AVE STE 200,DALY CITY,94015-1414"
331106900,"ASIAN AMERICAN JOB TRAINING CENTER","2140 W OLYMPIC BLVD STE 428","LOS ANGELES","CA","90006-2283","J20","J","2140 W OLYMPIC BLVD STE 428,LOS ANGELES,90006-2283"
342062576,"OAKLAND ASIAN POLICE OFFICERS ASSOCIATION","559 5TH ST","OAKLAND","CA","94607-3500","I0360","I","559 5TH ST,OAKLAND,94607-3500"
352207081,"THE HEART OF ASIA","328 OAK GLN","IRVINE","CA","92618-4705","G41","G","328 OAK GLN,IRVINE,92618-4705"
352464147,"KOREAN AMERICAN COMMUNITY CENTER OF SAN DIEGO COUNTY","12352 SYCAMORE CT","SAN DIEGO","CA","92131-0000","P28","P","12352 SYCAMORE CT,SAN DIEGO,92131-0000"
371552124,"VIETNAMESE AMERICAN GOOD SAMARITAN CHARITIES INC","5646 E VISTA DEL CERRO","ANAHEIM","CA","92807-3831","P99","P","5646 E VISTA DEL CERRO,ANAHEIM,92807-3831"
383899091,"LATINO KIDS HEALTH","901 W WHITTIER BLVD","MONTEBELLO","CA","90640-4737","P84","P","901 W WHITTIER BLVD,MONTEBELLO,90640-4737"
392072004,"FILIPINO AMERICAN LAW ENFORCEMENT OFFICERS ASSOCIATION","PO BOX 77086","SAN FRANCISCO","CA","94107-0086","I0360","I","PO BOX 77086,SAN FRANCISCO,94107-0086"
421583157,"KOREAN REAL ESTATE BROKERS ASSOCIATION","C/O JUSTIN OH 1019 S ALVARADO ST","LOS ANGELES","CA","90006-0000","L03","L","C/O JUSTIN OH 1019 S ALVARADO ST,LOS ANGELES,90006-0000"
421606234,"LOS AMIGOS GROUP","2518 W BEVERLY BLVD","MONTEBELLO","CA","90640-2308","G99","G","2518 W BEVERLY BLVD,MONTEBELLO,90640-2308"
450499333,"PASADENA JAPANESE ATHLETIC ASSOCIATION","1787 ROOSEVELT AVE","ALTADENA","CA","91001-3618","N40","N","1787 ROOSEVELT AVE,ALTADENA,91001-3618"
450726326,"GYALSHEN INSTITUTE FOR THE STUDY OF ZHANG ZHUNG AND TIBETAN CULTURE","4048 TUJUNGA AVE APT G","STUDIO CITY","CA","91604-3095","P0584","P","4048 TUJUNGA AVE APT G,STUDIO CITY,91604-3095"
450728325,"WORD OF GRACE CHINESE SCHOOL","2360 MCLAUGHLIN AVE","SAN JOSE","CA","95122-3560","P84","P","2360 MCLAUGHLIN AVE,SAN JOSE,95122-3560"
451504597,"FRESNO AMERICAN INDIAN HEALTH PROJECT","1551 E SHAW AVENUE","FRESNO","CA","93710-8024","P84","P","1551 E SHAW AVENUE,FRESNO,93710-8024"
452380583,"US-CHINA CULTURAL DEVELOPMENT CENTER","1827 HOURET CT","MILPITAS","CA","95035-6823","N66","N","1827 HOURET CT,MILPITAS,95035-6823"
452456871,"GUATEMALA DEAF MINISTRIES","PO BOX 809","TWIN PEAKS","CA","92391-0809","P87","P","PO BOX 809,TWIN PEAKS,92391-0809"
453502281,"LATINX PHYSICIANS OF CALIFORNIA","2229 J ST STE 200","SACRAMENTO","CA","95816-4711","J03","J","2229 J ST STE 200,SACRAMENTO,95816-4711"
453838838,"ASIAN HEALTH SERVICES 835 INC","818 WEBSTER ST","OAKLAND","CA","94607-4220","E32","E","818 WEBSTER ST,OAKLAND,94607-4220"
453844398,"VIETNAMESE PHYSICIAN ASSOCIATION OF SOUTHERN CALIFORNIA FOUNDATION","18080 BEACH BLVD STE 105","HUNTINGTN BCH","CA","92648-1317","G11","G","18080 BEACH BLVD STE 105,HUNTINGTN BCH,92648-1317"
455057992,"US CHINA MEDICAL EXCHANGE ASSOCIATION","430 ARBOR RD","MENLO PARK","CA","94025-5247","G90","G","430 ARBOR RD,MENLO PARK,94025-5247"
455072398,"IN BIZ LATINO INC","633 S RANCHO SANTA FE RD STE 233","SAN MARCOS","CA","92078-3973","P99","P","633 S RANCHO SANTA FE RD STE 233,SAN MARCOS,92078-3973"
455222941,"IGLESIA DEL DIOS VIVO LOS LLAMADOS DE MI NOMBRE","962 N GARDENIA AVE","ONTARIO","CA","91762-2043","K26","K","962 N GARDENIA AVE,ONTARIO,91762-2043"
455281837,"BAKERSFIELD AMERICAN INDIAN HEALTH PROJECT","1617 30TH ST","BAKERSFIELD","CA","93301-1907","P84","P","1617 30TH ST,BAKERSFIELD,93301-1907"
455309302,"HEART OF HOPE ASIAN AMERICAN HOSPICE CARE A NONPROFIT CORP","1922 THE ALAMEDA STE 215","SAN JOSE","CA","95126-1430","P74","P","1922 THE ALAMEDA STE 215,SAN JOSE,95126-1430"
455533533,"VIET THIEN INC","1982 SENTER RD","SAN JOSE","CA","95112-2603","P20","P","1982 SENTER RD,SAN JOSE,95112-2603"
460649020,"LATINO BUSINESS ACTION NETWORK INC","PO BOX 18803","STANFORD","CA","94309-8803","P84","P","PO BOX 18803,STANFORD,94309-8803"
460864415,"FIJI DENTAL AND MEDICAL FOUNDATION INC","PO BOX 535","SAN CLEMENTE","CA","92674-0535","E1180","E","PO BOX 535,SAN CLEMENTE,92674-0535"
461045524,"TODOS PARA LA SALUD","4420 N 1ST ST","FRESNO","CA","93726-2331","E32","E","4420 N 1ST ST,FRESNO,93726-2331"
461415746,"HISPANICS IN ENERGY","1017 L STREET STE 719","SACRAMENTO","CA","95814-3805","J20","J","1017 L STREET STE 719,SACRAMENTO,95814-3805"
461621672,"ASSOCIATION OF KOREAN AMERICAN ADDICTION COUNSELORS INSTITUTE","19162 INDEX ST UNIT 2","NORTHRIDGE","CA","91326-1685","F0322","F","19162 INDEX ST UNIT 2,NORTHRIDGE,91326-1685"
461744506,"SAN DIEGO JAPANESE COMMUNITY CENTER","11810 CALAMAR DR","SAN DIEGO","CA","92124-2832","P28","P","11810 CALAMAR DR,SAN DIEGO,92124-2832"
461962620,"HISPANIC 100 FOUNDATION","18012 SKY PARK CIR STE 200","IRVINE","CA","92614-6671","P20","P","18012 SKY PARK CIR STE 200,IRVINE,92614-6671"
462288278,"ASIAN PACIFIC INSTITUTE ON GENDER-BASED VIOLENCE","500 12TH ST STE 330","OAKLAND","CA","94607-4087","I70","I","500 12TH ST STE 330,OAKLAND,94607-4087"
462443922,"ASIA WORD","19600 FAIRCHILD STE 350","IRVINE","CA","92612-2519","L01","L","19600 FAIRCHILD STE 350,IRVINE,92612-2519"
462464722,"AYUDANDO LATINOS A SONAR","PO BOX 961","EL GRANADA","CA","94018-0961","P20","P","PO BOX 961,EL GRANADA,94018-0961"
462490094,"NEW HOPE CHINESE CANCER CARE FOUNDATION","500 E CALAVERAS BLVD STE 307","MILPITAS","CA","95035-7708","G30","G","500 E CALAVERAS BLVD STE 307,MILPITAS,95035-7708"
462491567,"CHINESE WORLDWIDE GOSPEL MISSION","1603 ARDENWOOD DR","SAN JOSE","CA","95129-3856","P84","P","1603 ARDENWOOD DR,SAN JOSE,95129-3856"
463074333,"SARANG KOREAN SCHOOL","1990 W CRESCENT AVE","ANAHEIM","CA","92801-3801","P84","P","1990 W CRESCENT AVE,ANAHEIM,92801-3801"
463232835,"HELPING KIDS IN ECUADOR","3991 MACARTHUR BLVD STE 240","NEWPORT BEACH","CA","92660-3042","P20","P","3991 MACARTHUR BLVD STE 240,NEWPORT BEACH,92660-3042"
463754904,"HELPING HAND INDO AMERICAN","101 W AMERICAN CANYON RD","AMERICAN CANYON","CA","94503-1162","G51","G","101 W AMERICAN CANYON RD,AMERICAN CANYON,94503-1162"
463792312,"VIETNAMESE AMERICAN COMMUNITY OF SACRAMENTO","6270 ELDER CREEK RD","SACRAMENTO","CA","95824-4113","P84","P","6270 ELDER CREEK RD,SACRAMENTO,95824-4113"
463805879,"EDUCATION BURMA THAILAND MYANMAR","PO BOX 813","NICASIO","CA","94946-0813","P84","P","PO BOX 813,NICASIO,94946-0813"
464412399,"ASIAN OUTREACH SERVICES INC","290 BROKAW RD","SANTA CLARA","CA","95050-4336","P84","P","290 BROKAW RD,SANTA CLARA,95050-4336"
464593418,"ASIAN AMERICA FOUNDATION","1376 BROADWAY","SAN FRANCISCO","CA","94109-2612","N52","N","1376 BROADWAY,SAN FRANCISCO,94109-2612"
465112434,"ASIA AMERICA SPORT ASSOCIATION","1731 S SAN GABRIEL BLVD","SAN GABRIEL","CA","91776-3927","N40","N","1731 S SAN GABRIEL BLVD,SAN GABRIEL,91776-3927"
465315326,"KOREAN SPORTS ASSOCIATION IN USA","1175 E 32ND ST","LOS ANGELES","CA","90011-2113","N40","N","1175 E 32ND ST,LOS ANGELES,90011-2113"
465386504,"NEPAL ORPHAN FUND","568 E EVELYN AVE","SUNNYVALE","CA","94086-6403","P30","P","568 E EVELYN AVE,SUNNYVALE,94086-6403"
465430969,"JUSTICE FOR VENEZUELANS FOUNDATION","PO BOX 192626","SAN FRANCISCO","CA","94119-2626","I02","I","PO BOX 192626,SAN FRANCISCO,94119-2626"
465550132,"CHINESE ATHLETIC ASSOCIATION - WEST COAST USA","56 WAVERLY PL","SAN FRANCISCO","CA","94108-2119","N40","N","56 WAVERLY PL,SAN FRANCISCO,94108-2119"
471492967,"SE ASIA ETHNIC MINORITY MISSION INC","171 TWIN RIDGE DR","SN LUIS OBISP","CA","93405-1057","P84","P","171 TWIN RIDGE DR,SN LUIS OBISP,93405-1057"
471502726,"A C SAMOA INC","PO BOX 554","EUREKA","CA","95502-0554","N64","N","PO BOX 554,EUREKA,95502-0554"
471838706,"VIDA JOVEN DE MEXICO","4079 GOVERNOR DRIVE 207","SAN DIEGO","CA","92122-2522","L99","L","4079 GOVERNOR DRIVE 207,SAN DIEGO,92122-2522"
472331258,"ASIAN & PACIFIC ISLANDER CAUCUS FOR PUBLIC HEALTH","151 ALICE B TOKLAS PL","SAN FRANCISCO","CA","94109-6959","E70","E","151 ALICE B TOKLAS PL,SAN FRANCISCO,94109-6959"
472485534,"SALUD PARA LA GENTE QALICB","195 AVIATION WAY STE 200","WATSONVILLE","CA","95076-2059","E21","E","195 AVIATION WAY STE 200,WATSONVILLE,95076-2059"
472943480,"FILIPINO SCHOOL","13860 STOWE DR","POWAY","CA","92064-8800","P84","P","13860 STOWE DR,POWAY,92064-8800"
474328195,"CLINICA SIERRA VISTA FOUNDATION","1430 TRUXTUN AVENUE","BAKERSFIELD","CA","93301-5246","E11","E","1430 TRUXTUN AVENUE,BAKERSFIELD,93301-5246"
474502396,"ORGANIZACION GRACIAS AMIGO","8721 RAMONA ST","BELLFLOWER","CA","","P60","P","8721 RAMONA ST,BELLFLOWER,"
474998531,"US-INDIA CARE AWARENESS RESEARCH AND EDUCATION INC","13708 ACORO ST","CERRITOS","CA","90703-8814","P0184","P","13708 ACORO ST,CERRITOS,90703-8814"
475010246,"LATINO FILM INSTITUTE YOUTH CINEMA PROJECT","18034 VENTURA BLVD STE 288","ENCINO","CA","91316-3516","O50","O","18034 VENTURA BLVD STE 288,ENCINO,91316-3516"
475034340,"CENTRO DEL INMIGRANTE INC","4055 JURUPA AVE","RIVERSIDE","CA","92506-2229","P84","P","4055 JURUPA AVE,RIVERSIDE,92506-2229"
475326702,"AMERICA FIJI SPORTS COMMISSION - AFSC","2310 LUNDY AVE","SAN JOSE","CA","95131-1827","N01","N","2310 LUNDY AVE,SAN JOSE,95131-1827"
481254036,"CASA DE AMIGOS COMMUNITY RESPITE CENTER INC","528 MONTEREY ST","BAKERSFIELD","CA","93305-4305","F30","F","528 MONTEREY ST,BAKERSFIELD,93305-4305"
510173858,"ASIAN REHABILITATION SERVICE INCORPORATED","7009 WASHINGTON AVE","WHITTIER","CA","90602-1416","P84","P","7009 WASHINGTON AVE,WHITTIER,90602-1416"
510189851,"CHINESE-AMERICAN GOLDEN AGE ASSOCIATION","234 NORTH RURAL DRIVE","MONTEREY PARK","CA","91755-4507","L20","L","234 NORTH RURAL DRIVE,MONTEREY PARK,91755-4507"
510192257,"EL CENTRO DE A CCION SOCIAL","675 S EL MOLINO AVE","PASADENA","CA","91106-3823","P84","P","675 S EL MOLINO AVE,PASADENA,91106-3823"
521062592,"NORTHERN CALIFORNIA JAPANESE SWORD CLUB","PO BOX 7156","SAN CARLOS","CA","94070-7156","N60","N","PO BOX 7156,SAN CARLOS,94070-7156"
521577685,"NATIONAL ASIAN PACIFIC AMERICAN FAMILIES AGAINST SUBSTANCE ABUSE","340 E 2ND ST STE 409","LOS ANGELES","CA","90012-4249","F21","F","340 E 2ND ST STE 409,LOS ANGELES,90012-4249"
522351119,"INDIA COMMUNITY CENTER INC","525 LOS COCHES ST","MILPITAS","CA","95035-5423","P28","P","525 LOS COCHES ST,MILPITAS,95035-5423"
522448069,"ASIAN HEALTHCARE INSTITUTE INC","1315 23RD AVE STE 210","SAN FRANCISCO","CA","94122-1640","E31","E","1315 23RD AVE STE 210,SAN FRANCISCO,94122-1640"
550899277,"JAPANESE AMERICAN BAR ASSOCIATION EDUCATIONAL FOUNDATION","PO BOX 86063","LOS ANGELES","CA","90086-0063","I03","I","PO BOX 86063,LOS ANGELES,90086-0063"
562412069,"LATINAS CONTRA CANCER","255 N MARKET ST STE 175","SAN JOSE","CA","95110-2457","G30","G","255 N MARKET ST STE 175,SAN JOSE,95110-2457"
562413890,"FRIENDSHIP HOUSE AMERICAN INDIAN HEALING CENTER INC","56 JULIAN AVE","SAN FRANCISCO","CA","94103-3507","P84","P","56 JULIAN AVE,SAN FRANCISCO,94103-3507"
571224018,"HARVEST INDIA","3095 RED HILL AVE","COSTA MESA","CA","92626-4516","P80","P","3095 RED HILL AVE,COSTA MESA,92626-4516"
593814553,"HAITI HEALTHCARE PARTNERS","4607 LAKEVIEW CANYON RD","WESTLAKE VLG","CA","91361-4028","E31","E","4607 LAKEVIEW CANYON RD,WESTLAKE VLG,91361-4028"
611464072,"SOUTH ASIAN BAR ASSOC OF SOUTHERN CA PUBLIC INTEREST FOUNDATION","PO BOX 811443","LOS ANGELES","CA","90081-0008","I01","I","PO BOX 811443,LOS ANGELES,90081-0008"
651252328,"INDO-AMERICAN SENIOR HERITAGE","PO BOX 532","ARTESIA","CA","90702-0532","E70","E","PO BOX 532,ARTESIA,90702-0532"
651292877,"SOUTHERN CALIFORNIA FILIPINO DENTAL SOCIETY INC","1365 N HACIENDA BLVD","LA PUENTE","CA","91744-1600","G90","G","1365 N HACIENDA BLVD,LA PUENTE,91744-1600"
680000818,"BACH-VIET ASSOCIATION INC","1050 FULTON AVENUE","SACRAMENTO","CA","95825-4272","P84","P","1050 FULTON AVENUE,SACRAMENTO,95825-4272"
680227882,"SOUTHEAST ASIAN ASSISTANCE CENTER","5625 24TH ST","SACRAMENTO","CA","95822-2233","P84","P","5625 24TH ST,SACRAMENTO,95822-2233"
680361662,"FOOTHILL INDIAN EDUCATION ALLIANCE SIERRA NATIVE AMERICAN COUNCIL","PO BOX 1418","EL DORADO","CA","95623-1418","P84","P","PO BOX 1418,EL DORADO,95623-1418"
680470904,"THE LATINA CENTER","3701 BARRETT AVE","RICHMOND","CA","94805-2252","P84","P","3701 BARRETT AVE,RICHMOND,94805-2252"
680485748,"REACH SHIRATI","PO BOX 7776","BERKELEY","CA","94707-0776","P84","P","PO BOX 7776,BERKELEY,94707-0776"
680539881,"THE RODEM CHURCH","4074 EAST AVE","LIVERMORE","CA","94550-4941","G41","G","4074 EAST AVE,LIVERMORE,94550-4941"
680573772,"EASTERN CHINESE SCHOOL","1908 DRISCOLL ROAD","FREMONT","CA","94539-0000","P84","P","1908 DRISCOLL ROAD,FREMONT,94539-0000"
680638214,"SOUTHERN CALIFORNIA INDIAN LAW AND JUSTICE CENTER","49002 GOLSH RD","VALLEY CENTER","CA","92082-5350","P84","P","49002 GOLSH RD,VALLEY CENTER,92082-5350"
710882574,"UNION MISSION PERU","22232 S VERMONT AVE","TORRANCE","CA","90502-2167","P84","P","22232 S VERMONT AVE,TORRANCE,90502-2167"
721553715,"DREAMS IN ACTION INTERNATIONAL","8109 ARROYO VISTA DR","SACRAMENTO","CA","95823-5934","P30","P","8109 ARROYO VISTA DR,SACRAMENTO,95823-5934"
753227469,"VIETNAMESE BUDDHIST MEDITATION CONGREGATION-ZEN STUDY OFFICE INC","8811 KATELLA AVE","ANAHEIM","CA","92804-6238","P50","P","8811 KATELLA AVE,ANAHEIM,92804-6238"
754477742,"CHINESE FAMILY SEVICES AND CHARITIES FOUNDATION","852 W MABEL AVE","MONTEREY PARK","CA","91754-2653","P75","P","852 W MABEL AVE,MONTEREY PARK,91754-2653"
770051442,"KERN COUNTY HISPANIC COMMISSION ON ALCOHOL AND DRUG ABUSE SERVICES","1400 EASTON DR STE 151","BAKERSFIELD","CA","93309-9406","G80","G","1400 EASTON DR STE 151,BAKERSFIELD,93309-9406"
770207531,"KOREAN AMERICAN SENIOR CITIZENS LEAGUE OF SANTA CLARA","3707 WILLIAMS RD","SAN JOSE","CA","95117-2700","P81","P","3707 WILLIAMS RD,SAN JOSE,95117-2700"
770241087,"CHINA EVANGELISTIC MISSION INC","2400 OLD CROW CANYON RD STE A6","SAN RAMON","CA","94583-1222","O40","O","2400 OLD CROW CANYON RD STE A6,SAN RAMON,94583-1222"
770310310,"CENTRO LA FAMILIA ADVOCACY SERVICES INC","302 FRESNO ST STE 102","FRESNO","CA","93706-3641","I80","I","302 FRESNO ST STE 102,FRESNO,93706-3641"
770398793,"AMERICAN INDIAN HEALTH & SERVICES CORPORATION","4141 STATE ST STE A-1","SANTA BARBARA","CA","93110-1850","P84","P","4141 STATE ST STE A-1,SANTA BARBARA,93110-1850"
770413945,"FAMILIES WITH CHILDREN FROM CHINA NORTHERN CALIFORNIA SF FCC","PO BOX 6208","ALBANY","CA","","M20","M","PO BOX 6208,ALBANY,"
770444177,"EMPOWERMENT INSTITUTE INC","777 MINNEWAWA AVE STE 8","CLOVIS","CA","93612-1730","P82","P","777 MINNEWAWA AVE STE 8,CLOVIS,93612-1730"
770535576,"VIETNAMESE PARISH SOCIAL MINISTRY","291 SPOSITO CIR","SAN JOSE","CA","95136-2140","P20","P","291 SPOSITO CIR,SAN JOSE,95136-2140"
770538832,"HABITAT FOR HUMANITY INTERNATIONAL INC","PO BOX 2134","RIDGECREST","CA","93556-2134","L20","L","PO BOX 2134,RIDGECREST,93556-2134"
776127769,"CHINESE CANCER MEMORIAL FOUNDATION","1208 W LATIMER AVE","CAMPBELL","CA","95008-1703","G30","G","1208 W LATIMER AVE,CAMPBELL,95008-1703"
800211920,"ASIANS AND PACIFIC ISLANDERS WITH DISABILITIES OF CALIFORNIA","905 E 8TH STREET","LOS ANGELES","CA","90021-1848","E70","E","905 E 8TH STREET,LOS ANGELES,90021-1848"
800745313,"ROYAL CHINESE CULTURAL ACADEMY","6156 CORTE PADRE","PLEASANTON","CA","94566-5883","P84","P","6156 CORTE PADRE,PLEASANTON,94566-5883"
800873203,"APOYO LEGAL MIGRANTE ASOCIADO ALMA","SOBRATO CENTER FOR NONPROFITS 534-","MILPITAS","CA","95035-0000","I80","I","SOBRATO CENTER FOR NONPROFITS 534-,MILPITAS,95035-0000"
800875881,"FREEDOM FOR IMMIGRANTS","1322 WEBSTER ST STE 300","OAKLAND","CA","94612-3218","P84","P","1322 WEBSTER ST STE 300,OAKLAND,94612-3218"
810663477,"INTERNATIONAL TIBET NETWORK","1310 FILLMORE ST APT 401","SAN FRANCISCO","CA","94115-7700","P84","P","1310 FILLMORE ST APT 401,SAN FRANCISCO,94115-7700"
810720026,"ASIAN PACIFIC ISLANDER COMMUNITY ACTIONS APICA","837 REDBUD RD","CHULA VISTA","CA","91910-0000","P20","P","837 REDBUD RD,CHULA VISTA,91910-0000"
811114393,"SALVANDO NINOS","3421 S HARCOURT AVE","LOS ANGELES","CA","90016-3918","P30","P","3421 S HARCOURT AVE,LOS ANGELES,90016-3918"
811365043,"WORLD TAIWAN BENEVOLENT ASSOCIATION","19781 BIXBY DR","CUPERTINO","CA","95014-3324","P84","P","19781 BIXBY DR,CUPERTINO,95014-3324"
811597817,"CLARET HISPANIC ORGANIZATION","8745 WHITTIER BLVD","PICO RIVERA","CA","90660-2636","P43","P","8745 WHITTIER BLVD,PICO RIVERA,90660-2636"
812253813,"KOREA SPORTS COUNCIL OF ORANGE COUNTY","9876 GARDEN GROVE BLVD STE S","GARDEN GROVE","CA","92844-1643","N70","N","9876 GARDEN GROVE BLVD STE S,GARDEN GROVE,92844-1643"
812450551,"LATINO CANCER INSTITUTE","123 E SAN CARLOS ST STE 413","SAN JOSE","CA","95112-3680","P20","P","123 E SAN CARLOS ST STE 413,SAN JOSE,95112-3680"
813111578,"ASSOCIATION OF INDO AMERICANS","538 MADISON ST","ALBANY","CA","94706-1117","P99","P","538 MADISON ST,ALBANY,94706-1117"
814436681,"KOREAN SPORTS ASSOCIATION IN SAN FRANCISCO","1739 NORIEGA ST","SAN FRANCISCO","CA","94122-4307","N70","N","1739 NORIEGA ST,SAN FRANCISCO,94122-4307"
814751047,"CIRCULO DE AMIGAS FOUNDATION","104A MAIN ST","TIBURON","CA","94920-2510","P40","P","104A MAIN ST,TIBURON,94920-2510"
820638525,"KOREAN AMERICAN YOUTH LEADERSHIP PROGRAM","1037 BENTOAK LN","SAN JOSE","CA","95129-3103","O99","O","1037 BENTOAK LN,SAN JOSE,95129-3103"
820847973,"CENTRO BAUTISTA PARA LA COMUNIDAD","4035 TYLER AVE","EL MONTE","CA","91731-2039","P58","P","4035 TYLER AVE,EL MONTE,91731-2039"
822237395,"KOREAN HISTORY AND CULTURAL CENTER","2917 SEA VIEW PKWY","ALAMEDA","CA","94502-7450","P20","P","2917 SEA VIEW PKWY,ALAMEDA,94502-7450"
822814095,"ALIENTO CUBA","PO BOX 2292","MORGAN HILL","CA","95038-2292","P99","P","PO BOX 2292,MORGAN HILL,95038-2292"
860392443,"AMERICAN INDIAN EDUCATION CONSULTANTS INC","PO BOX 1284","COARSEGOLD","CA","93614-1284","P84","P","PO BOX 1284,COARSEGOLD,93614-1284"
861061762,"KOREAN AMERICAN RUNNING TEAM","4715 S ALAMEDA ST","VERNON","CA","90058-2014","N60","N","4715 S ALAMEDA ST,VERNON,90058-2014"
901029650,"SOUTH EAST ASIA MISSING CHILDREN FOUNDATION INC","15361 BROOKHURST ST STE 212","WESTMINSTER","CA","92683-7076","P30","P","15361 BROOKHURST ST STE 212,WESTMINSTER,92683-7076"
912055728,"VIET BLIND CHILDREN FOUNDATION","1045 SLOAT BLVD","SAN FRANCISCO","CA","94132-1345","G41","G","1045 SLOAT BLVD,SAN FRANCISCO,94132-1345"
912081254,"VIETNAMESE YOUTH FOUNDATION","15563 BROOKHURST ST","WESTMINSTER","CA","92683-7554","O12","O","15563 BROOKHURST ST,WESTMINSTER,92683-7554"
912156681,"AMERICAN INDIAN RECRUITMENT PROGRAMS","PO BOX 880471","SAN DIEGO","CA","92168-0471","O51","O","PO BOX 880471,SAN DIEGO,92168-0471"
912164230,"ASIAN SKIING AND BOARDING CLUB OF L A","301 N LAKE AVE","PASADENA","CA","91101-4107","N68","N","301 N LAKE AVE,PASADENA,91101-4107"
912170415,"VIETNAMESE AMERICAN CANCER FOUNDATION","17150 NEWHOPE ST STE 203","FOUNTAIN VLY","CA","92708-4250","G30","G","17150 NEWHOPE ST STE 203,FOUNTAIN VLY,92708-4250"
931012279,"LEALA OF CALIFORNIA INC","PO BOX 5332","WHITTIER","CA","90607-5332","P84","P","PO BOX 5332,WHITTIER,90607-5332"
940382780,"CHINESE HOSPITAL ASSOCIATION","845 JACKSON ST","SAN FRANCISCO","CA","94133-4851","E22","E","845 JACKSON ST,SAN FRANCISCO,94133-4851"
941665831,"STRONG FAMILY HEALTH CENTER","1203 OAK ST","ALTURAS","CA","96101-3225","P84","P","1203 OAK ST,ALTURAS,96101-3225"
941668995,"M A C T HEALTH BOARD INCORPORATED","PO BOX 939","ANGELS CAMP","CA","95222-0939","E99","E","PO BOX 939,ANGELS CAMP,95222-0939"
941669142,"TULE RIVER INDIAN HEALTH CENTER INC","PO BOX 768","PORTERVILLE","CA","93258-0768","E30","E","PO BOX 768,PORTERVILLE,93258-0768"
941676390,"CALIFORNIA INDIAN LEGAL SERVICES INC","609 S ESCONDIDO BLVD","ESCONDIDO","CA","92025-4817","I80","I","609 S ESCONDIDO BLVD,ESCONDIDO,92025-4817"
941728818,"COMMUNITY YOUTH CENTER OF SAN FRANCISCO","1038 POST ST","SAN FRANCISCO","CA","94109-5603","O50","O","1038 POST ST,SAN FRANCISCO,94109-5603"
941741896,"SONOMA COUNTY INDIAN HEALTH PROJECT INC","144 STONY POINT RD","SANTA ROSA","CA","95401-4122","E30","E","144 STONY POINT RD,SANTA ROSA,95401-4122"
941744108,"LA CLINICA DE LA RAZA INC","PO BOX 22210","OAKLAND","CA","94623-2210","E32","E","PO BOX 22210,OAKLAND,94623-2210"
941745488,"CENTRAL VALLEY INDIAN HEALTH INC","2740 HERNDON AVE","CLOVIS","CA","93611-6813","E30","E","2740 HERNDON AVE,CLOVIS,93611-6813"
941747220,"NORTHERN VALLEY INDIAN HEALTH INC","207 N BUTTE ST","WILLOWS","CA","95988-2803","E32","E","207 N BUTTE ST,WILLOWS,95988-2803"
942151392,"ROUND VALLEY INDIAN HEALTH CENTER INC","PO BOX 247","COVELO","CA","95428-0247","E30","E","PO BOX 247,COVELO,95428-0247"
942152893,"CHINESE NEWCOMERS SERVICE CENTER","777 STOCKTON ST STE 104","SAN FRANCISCO","CA","94108-2370","P84","P","777 STOCKTON ST STE 104,SAN FRANCISCO,94108-2370"
942176139,"ASIAN AMERICANS ADVANCING JUSTICE-ASIAN LAW CAUCUS","55 COLUMBUS AVE","SAN FRANCISCO","CA","94111-2101","I80","I","55 COLUMBUS AVE,SAN FRANCISCO,94111-2101"
942179871,"ASSOCIATED FILIPINO ORGANIZATIONS OF SAN JOAQUIN COUNTY","6 W MAIN ST","STOCKTON","CA","95202-2829","L20","L","6 W MAIN ST,STOCKTON,95202-2829"
942218907,"FILIPINO ADVOCATES FOR JUSTICE","310 EIGHTH ST","OAKLAND","CA","94607-6526","P84","P","310 EIGHTH ST,OAKLAND,94607-6526"
942233641,"LOS NINOS SERVICE LEAGUE","2760 SUTTERVILLE ROAD","SACRAMENTO","CA","95820-1039","P1130","P","2760 SUTTERVILLE ROAD,SACRAMENTO,95820-1039"
942235908,"ASIAN HEALTH SERVICES","818 WEBSTER ST","OAKLAND","CA","94607-4220","E30","E","818 WEBSTER ST,OAKLAND,94607-4220"
942248390,"ASIAN COMMUNITY MENTAL HEALTH BOARD","310 8TH ST STE 201","OAKLAND","CA","94607-6527","F32","F","310 8TH ST STE 201,OAKLAND,94607-6527"
942271380,"ASIAN COMMUNITY CENTER OF SACRAMENTO VALLEY INC","7334 PARK CITY DR","SACRAMENTO","CA","95831-3865","E91","E","7334 PARK CITY DR,SACRAMENTO,95831-3865"
942292491,"ASIAN AMERICANS FOR COMMUNITY INVOLVEMENT OF SANTA CLARA COUNTY","2400 MOORPARK AVE STE 300","SAN JOSE","CA","95128-2680","P84","P","2400 MOORPARK AVE STE 300,SAN JOSE,95128-2680"
942295723,"LA RAZA CENTRO LEGAL-SAN FRANCISCO","474 VALENCIA ST","SAN FRANCISCO","CA","94103-3415","I80","I","474 VALENCIA ST,SAN FRANCISCO,94103-3415"
942301551,"CALIFORNIA HISPANIC COMMISSION ON ALCOHOL AND DRUG ABUSE INC","1901 ROYAL OAKS DR STE 101","SACRAMENTO","CA","95815-4235","F20","F","1901 ROYAL OAKS DR STE 101,SACRAMENTO,95815-4235"
942376837,"LATIN AMERICAN MISSIONS INC","2200 NELDA WAY","ALAMO","CA","94507-2004","P28","P","2200 NELDA WAY,ALAMO,94507-2004"
942427398,"YU-AI KAI-JAPANESE AMERICAN COMMUNITY SENIOR SERV OF SAN JOSE","588 N 4TH ST","SAN JOSE","CA","95112-5311","P81","P","588 N 4TH ST,SAN JOSE,95112-5311"
942427585,"FRESNO COUNTY HISPANIC COMMISSION ON ALCOLHOL & DRUG ABUSE SERVICES","1803 BROADWAY ST","FRESNO","CA","93721-1047","F22","F","1803 BROADWAY ST,FRESNO,93721-1047"
942439581,"SANTA CLARA COUNTY ASIAN LAW ALLIANCE INC","991 W HEDDING ST STE 202","SAN JOSE","CA","95126-1248","I80","I","991 W HEDDING ST STE 202,SAN JOSE,95126-1248"
942472564,"CALIFORNIA INDIAN MANPOWER CONSORTIUM INC","738 N MARKET BLVD","SACRAMENTO","CA","95834-1206","J20","J","738 N MARKET BLVD,SACRAMENTO,95834-1206"
942489666,"ASIAN PACIFIC COMMUNITY COUNSELING","7273 14TH AVENUE","SACRAMENTO","CA","95820-3500","F32","F","7273 14TH AVENUE,SACRAMENTO,95820-3500"
942489691,"CENTRO DE SERVICIOS OF ALAMEDA COUNTY","525 H ST","UNION CITY","CA","94587-3452","P84","P","525 H ST,UNION CITY,94587-3452"
942494904,"SIERRA TRIBAL CONSORTIUM INC","610 W MCKINLEY AVE","FRESNO","CA","93728-1425","F22","F","610 W MCKINLEY AVE,FRESNO,93728-1425"
942496799,"J-SEI-INC","1285 66TH STREET","EMERYVILLE","CA","94608-1090","P84","P","1285 66TH STREET,EMERYVILLE,94608-1090"
942503925,"KOREAN COMMUNITY CENTER OF THE EAST BAY","1700 BROADWAY STE 400","OAKLAND","CA","94612-2141","P28","P","1700 BROADWAY STE 400,OAKLAND,94612-2141"
942508419,"MEI LUN YUE INC","945 SACRAMENTO STREET","SAN FRANCISCO","CA","94108-2071","L20","L","945 SACRAMENTO STREET,SAN FRANCISCO,94108-2071"
942514053,"CHINATOWN COMMUNITY DEVELOPMENT CENTER INC","1525 GRANT AVE","SAN FRANCISCO","CA","94133-3323","L20","L","1525 GRANT AVE,SAN FRANCISCO,94133-3323"
942514195,"KOREAN AMERICAN SENIOR SERVICES INC","745 BUCHANAN ST","SAN FRANCISCO","CA","94102-4163","P84","P","745 BUCHANAN ST,SAN FRANCISCO,94102-4163"
942532304,"SOUTHEAST ASIAN DEVELOPMENT CENTER","166 EDDY ST","SAN FRANCISCO","CA","94102-2708","O50","O","166 EDDY ST,SAN FRANCISCO,94102-2708"
942551170,"UNITED INDIAN NATIONS INC","1122 DAVIS ST","SAN LEANDRO","CA","94577-2500","J20","J","1122 DAVIS ST,SAN LEANDRO,94577-2500"
942581434,"SACRAMENTO CHINESE COMMUNITY SERVICE CENTER INC","420 I ST STE 5","SACRAMENTO","CA","95814-2319","P84","P","420 I ST STE 5,SACRAMENTO,95814-2319"
942583156,"CHAPA-DE INDIAN HEALTH PROGRAM INC","11670 ATWOOD RD","AUBURN","CA","95603-9522","E30","E","11670 ATWOOD RD,AUBURN,95603-9522"
942583284,"NIHONMACHI LEGAL OUTREACH","1121 MISSION ST","SAN FRANCISCO","CA","94103-1514","I80","I","1121 MISSION ST,SAN FRANCISCO,94103-1514"
942604543,"SOUTHEAST ASIAN COMMUNITY CENTER","875 OFARRELL ST","SAN FRANCISCO","CA","94109-7073","P84","P","875 OFARRELL ST,SAN FRANCISCO,94109-7073"
942652757,"CLINICA DE SALUD DEL VALLE DE SALINAS","440 AIRPORT BLVD","SALINAS","CA","93905-3302","E32","E","440 AIRPORT BLVD,SALINAS,93905-3302"
942658135,"ASIAN RESOURCES INC","5100 EL PARAISO AVE","SACRAMENTO","CA","95824-4006","E30","E","5100 EL PARAISO AVE,SACRAMENTO,95824-4006"
942705747,"SALUD PARA LA GENTE","195 AVIATION WAY STE 200","WATSONVILLE","CA","95076-2059","E30","E","195 AVIATION WAY STE 200,WATSONVILLE,95076-2059"
942764504,"VIETNAMESE VOLUNTARY FOUNDATION INC","2264 QUIMBY RD","SAN JOSE","CA","95122-1389","P84","P","2264 QUIMBY RD,SAN JOSE,95122-1389"
942778443,"THE VIETNAMESE SENIOR CITIZEN ASSOCIATION OF SACRAMENTO AND ITS","2601 WARREGO WAY","SACRAMENTO","CA","95826-2435","P81","P","2601 WARREGO WAY,SACRAMENTO,95826-2435"
942796496,"INDOCHINESE HOUSING DEVELOPMENT CORPORATION","340 EDDY ST STE 100","SAN FRANCISCO","CA","94102-2631","L20","L","340 EDDY ST STE 100,SAN FRANCISCO,94102-2631"
942813695,"EAST BAY KOREAN-AMERICAN SENIOR SERVICES CENTER","1723 TELEGRAPH AVE","OAKLAND","CA","94612-2107","P81","P","1723 TELEGRAPH AVE,OAKLAND,94612-2107"
942820001,"SONS AND DAUGHTERS OF GUAM CLUB INC","PO BOX 740067","SAN DIEGO","CA","92174-0067","N50","N","PO BOX 740067,SAN DIEGO,92174-0067"
942874693,"SENIOR TAIWANESE ASSOCIATION OF NORTHERN CALIFORNIA","10430 S DE ANZA BLVD STE 280","CUPERTINO","CA","95014-3025","P81","P","10430 S DE ANZA BLVD STE 280,CUPERTINO,95014-3025"
942925799,"EAST BAY ASIAN YOUTH CENTER","2025 E 12TH ST","OAKLAND","CA","94606-4925","O50","O","2025 E 12TH ST,OAKLAND,94606-4925"
942977665,"ASIAN IMMIGRANT WOMEN ADVOCATES INC","310 8TH ST STE 301","OAKLAND","CA","94607-4253","P84","P","310 8TH ST STE 301,OAKLAND,94607-4253"
943000720,"CENTRO LATINO DE SAN FRANCISCO","1656 15TH ST","SAN FRANCISCO","CA","94103-3509","P81","P","1656 15TH ST,SAN FRANCISCO,94103-3509"
943030866,"ASIAN & PACIFIC ISLANDER AMERICAN HEALTH FORUM","1 KAISER PLZ STE 850","OAKLAND","CA","94612-3606","G81","G","1 KAISER PLZ STE 850,OAKLAND,94612-3606"
943050247,"ASSOCIATION OF ASIAN-PACIFIC COMMUNITY HEALTH ORGANIZATIONS","101 CALLAN AVE STE 400","SAN LEANDRO","CA","94577-4523","E70","E","101 CALLAN AVE STE 400,SAN LEANDRO,94577-4523"
943069819,"CHICANO & LATINO YOUTH LEADERSHIP PROJECT","PO BOX 161566","SACRAMENTO","CA","95816-1566","O50","O","PO BOX 161566,SACRAMENTO,95816-1566"
943096109,"ASIAN AND PACIFIC ISLANDER WELLNESS CENTER INC","730 POLK STREET","SAN FRANCISCO","CA","94109-7813","G81","G","730 POLK STREET,SAN FRANCISCO,94109-7813"
943105388,"ASIAN AMERICAN DONOR PROGRAM","2169 HARBOR BAY PKWY","ALAMEDA","CA","94502-3019","E65","E","2169 HARBOR BAY PKWY,ALAMEDA,94502-3019"
943115164,"LAO FAMILY COMMUNITY DEVELOPMENT INC","2325 EAST 12TH STREET SUITE 226","OAKLAND","CA","94601-1014","P84","P","2325 EAST 12TH STREET SUITE 226,OAKLAND,94601-1014"
943117122,"ASIANS AND PACIFIC AMERICANS IN HIGHER EDUCATION","1113 PEACH ST","ALAMEDA","CA","94501-5526","P84","P","1113 PEACH ST,ALAMEDA,94501-5526"
943131318,"CHINESE FAMILY FOR CHRIST","PO BOX 610301","SAN JOSE","CA","95161-0301","P46","P","PO BOX 610301,SAN JOSE,95161-0301"
943149136,"LATINO COMMISION ON ALCOHOL & DRUG ABUSE SERVICES OF SAN MATEO CNTY","1001 SNEATH LN STE 307","SAN BRUNO","CA","94066-2349","F22","F","1001 SNEATH LN STE 307,SAN BRUNO,94066-2349"
943152368,"FOUR WINDS OF INDIAN EDUCATION","2345 FAIR ST","CHICO","CA","95928-6749","P84","P","2345 FAIR ST,CHICO,95928-6749"
943156131,"CRECE-COMITE DE REFUGIADOS CENTRO- AMERICANOS DEL ESTE DE LA BAHIA","4848 INTERNATIONAL BLVD","OAKLAND","CA","94601-5212","P84","P","4848 INTERNATIONAL BLVD,OAKLAND,94601-5212"
943164091,"APA FAMILY SUPPORT SERVICES","10 NOTTINGHAM PL","SAN FRANCISCO","CA","94133-4523","E40","E","10 NOTTINGHAM PL,SAN FRANCISCO,94133-4523"
943167910,"ASIAN PACIFIC YOUTH LEADERSHIP PROJECT","PO BOX 22423","SACRAMENTO","CA","95822-0423","O50","O","PO BOX 22423,SACRAMENTO,95822-0423"
943169584,"VIETNAM HEALTH EDUCATION & LITERATURE PROJECTS","500 E CALAVERAS BLVD STE 235","MILPITAS","CA","95035-7710","E70","E","500 E CALAVERAS BLVD STE 235,MILPITAS,95035-7710"
943184812,"NICOS CHINESE HEALTH COALITION","1208 MASON ST","SAN FRANCISCO","CA","94108-1012","E70","E","1208 MASON ST,SAN FRANCISCO,94108-1012"
943189174,"EL CENTRO DE LIBERTAD","500 ALLERTON STREET 2ND FLOOR","REDWOOD CITY","CA","94063-1519","P20","P","500 ALLERTON STREET 2ND FLOOR,REDWOOD CITY,94063-1519"
943226237,"YELLOW RIVER CHINESE SCHOOL","PO BOX 15393","FREMONT","CA","94539-2493","P84","P","PO BOX 15393,FREMONT,94539-2493"
943236285,"LAO PARK HOUSING CORPORATION","2325 EAST 12TH STREET NO 226","OAKLAND","CA","94601-1014","L50","L","2325 EAST 12TH STREET NO 226,OAKLAND,94601-1014"
943237165,"VIETNAMESE FAMILY SERVICES CENTER","875 OFARRELL ST STE 103","SAN FRANCISCO","CA","94109-7074","P40","P","875 OFARRELL ST STE 103,SAN FRANCISCO,94109-7074"
943237212,"COMMUNITY HEALTH FOR ASIAN AMERICANS","1141 HARBOR BAY PKWY105","ALAMEDA","CA","94502-6596","F30","F","1141 HARBOR BAY PKWY105,ALAMEDA,94502-6596"
943265100,"FILIPINO AMERICAN RURAL MISSION","8109 ARROYO VISTA DR","SACRAMENTO","CA","95823-5934","P84","P","8109 ARROYO VISTA DR,SACRAMENTO,95823-5934"
943296213,"CAMBODIAN COMMUNITY DEVELOPMENT INCORPORATED","875 OFARRELL ST STE 103","SAN FRANCISCO","CA","94109-7074","P84","P","875 OFARRELL ST STE 103,SAN FRANCISCO,94109-7074"
943300090,"FILIPINO-AMERICAN DEVELOPMENT FOUNDATION","1010 MISSION ST","SAN FRANCISCO","CA","94103-2813","P84","P","1010 MISSION ST,SAN FRANCISCO,94103-2813"
943311784,"FORWARD TOGETHER","300 FRANK H OGAWA PLZ STE 700","OAKLAND","CA","94612-2048","E0540","E","300 FRANK H OGAWA PLZ STE 700,OAKLAND,94612-2048"
943375666,"COMMUNITY PARTNERS INTERNATIONAL","2560 9TH ST STE 315 # B","BERKELEY","CA","94710-2567","P20","P","2560 9TH ST STE 315 # B,BERKELEY,94710-2567"
943401651,"INDO-AMERICANS FOR BETTER COMMUNITY","707 PILGRIM LOOP","FREMONT","CA","94539-6287","M20","M","707 PILGRIM LOOP,FREMONT,94539-6287"
943410511,"ASIAN MEDICAL CLINIC OF FREMONT INC","PO BOX 14858","FREMONT","CA","94539-1858","E31","E","PO BOX 14858,FREMONT,94539-1858"
946122454,"EDEN TOWNSHIP JAPANESE COMMUNITY CENTER","PO BOX 264","SAN LORENZO","CA","94580-0264","P28","P","PO BOX 264,SAN LORENZO,94580-0264"
951647829,"JAPANESE INSTITUTE OF SAWTELLE","2110 CORINTH AVE","LOS ANGELES","CA","90025-6224","P28","P","2110 CORINTH AVE,LOS ANGELES,90025-6224"
951911180,"RANCHO RESEARCH INSTITUTE","7601 E IMPRL HWY TRLR F3","DOWNEY","CA","90242-0000","H99","H","7601 E IMPRL HWY TRLR F3,DOWNEY,90242-0000"
952372183,"FILIPINO AMERICAN COMMUNITY OF LOS ANGELES INC","1740 W TEMPLE ST","LOS ANGELES","CA","90026-5422","P81","P","1740 W TEMPLE ST,LOS ANGELES,90026-5422"
952390659,"FILIPINO COMMUNITY OF LOS ANGELES HARBOR AREA INC","PO BOX 534","WILMINGTON","CA","90748-0534","P84","P","PO BOX 534,WILMINGTON,90748-0534"
952513421,"CASA DE LAS AMIGAS","160 N EL MOLINO AVE","PASADENA","CA","91101-1805","F20","F","160 N EL MOLINO AVE,PASADENA,91101-1805"
952538049,"TOIYABE INDIAN HEALTH PROJECT INC","250 N SEE VEE LN","BISHOP","CA","93514-8130","E80","E","250 N SEE VEE LN,BISHOP,93514-8130"
952594166,"MEXICAN AMERICAN OPPORTUNITY FOUNDATION","401 N GARFIELD AVE","MONTEBELLO","CA","90640-2901","J22","J","401 N GARFIELD AVE,MONTEBELLO,90640-2901"
952657324,"CLINICAS DE SALUD DEL PUEBLO INC","1166 K ST","BRAWLEY","CA","92227-2737","E30","E","1166 K ST,BRAWLEY,92227-2737"
952662606,"EL PROYECTO DEL BARRIO INC","8932 WOODMAN AVENUE","ARLETA","CA","91331-8021","P28","P","8932 WOODMAN AVENUE,ARLETA,91331-8021"
952664143,"KOREISHA CHUSHOKU KAI","244 S SAN PEDRO STREET","LOS ANGELES","CA","90012-3856","P84","P","244 S SAN PEDRO STREET,LOS ANGELES,90012-3856"
952707101,"CLINICA SIERRA VISTA","1430 TRUXTUN AVENUE","BAKERSFIELD","CA","93301-5246","E32","E","1430 TRUXTUN AVENUE,BAKERSFIELD,93301-5246"
952801772,"CENTRO DE SALUD LA COMUNIDAD DE SAN YSIDRO INC","1601 PRECISION PARK LN","SAN DIEGO","CA","92173-1345","E32","E","1601 PRECISION PARK LN,SAN DIEGO,92173-1345"
952846605,"RIVERSIDE-SAN BERNARDINO COUNTY INDIAN HEALTH INC","11980 MOUNT VERNON AVE","GRAND TERRACE","CA","92313-5172","E32","E","11980 MOUNT VERNON AVE,GRAND TERRACE,92313-5172"
952848695,"ASIAN AMERICAN DRUG ABUSE PROGRAM INC","2900 CRENSHAW BLVD","LOS ANGELES","CA","90016-4265","F20","F","2900 CRENSHAW BLVD,LOS ANGELES,90016-4265"
952917933,"UNITED AMERICAN INDIAN INVOLVEMENT","1125 W 6TH ST STE 400","LOS ANGELES","CA","90017-1879","P84","P","1125 W 6TH ST STE 400,LOS ANGELES,90017-1879"
952959331,"ALMA FAMILY SERVICES","900 CORPORATE CENTER DR","MONTEREY PARK","CA","91754-7620","F80","F","900 CORPORATE CENTER DR,MONTEREY PARK,91754-7620"
952979639,"VIETNAMESE UNITED BUDDHIST CHURCHES","863 S BERENDO ST","LOS ANGELES","CA","90005-1802","P84","P","863 S BERENDO ST,LOS ANGELES,90005-1802"
953032842,"CHINESE COMMITTEE 0N AGING OF LOS ANGELES","600 N BROADWAY STE B","LOS ANGELES","CA","90012-6113","P81","P","600 N BROADWAY STE B,LOS ANGELES,90012-6113"
953055487,"CITY OF CHILDREN CUIDAD DE NINOS","PO BOX 893310","TEMECULA","CA","92589-3310","P70","P","PO BOX 893310,TEMECULA,92589-3310"
953146855,"CENTRO DE NINOS INC","4850 E CESAR E CHAVEZ AVE","LOS ANGELES","CA","90022-1307","P33","P","4850 E CESAR E CHAVEZ AVE,LOS ANGELES,90022-1307"
953187780,"EL CENTRO DE PUEBLO","1157 LEMOYNE ST","LOS ANGELES","CA","90026-3206","P20","P","1157 LEMOYNE ST,LOS ANGELES,90026-3206"
953213958,"PROYECTO PASTORAL","135 N MISSION RD","LOS ANGELES","CA","90033-2101","P30","P","135 N MISSION RD,LOS ANGELES,90033-2101"
953245254,"KOREAN COMMUNITY SERVICES INC","8633 KNOTT AVE","BUENA PARK","CA","90620-3852","I23","I","8633 KNOTT AVE,BUENA PARK,90620-3852"
953403526,"SOUTHLAND INTEGRATED SERVICES INC","1618 W 1ST ST","SANTA ANA","CA","92703-3614","O40","O","1618 W 1ST ST,SANTA ANA,92703-3614"
953442295,"UNITED CAMBODIAN COMMUNITY","2201 E ANAHEIM ST STE 200","LONG BEACH","CA","90804-3411","P84","P","2201 E ANAHEIM ST STE 200,LONG BEACH,90804-3411"
953443276,"PARA LOS NINOS","5000 HOLLYWOOD BLVD","LOS ANGELES","CA","90027-6104","P30","P","5000 HOLLYWOOD BLVD,LOS ANGELES,90027-6104"
953474707,"GARDENA VALLEY JAPANESE CULTURAL INSTITUTE HOUSING PROJECT","1964 W 162ND ST","GARDENA","CA","90247-3640","L22","L","1964 W 162ND ST,GARDENA,90247-3640"
953498639,"EL CENTRO DE AMISTAD INC","7038 OWENSMOUTH AVENUE","CANOGA PARK","CA","91303-3198","F32","F","7038 OWENSMOUTH AVENUE,CANOGA PARK,91303-3198"
953506398,"CHINESE COMMUNITY ON AGING HOUSING CORP","1101 E ORANGEWOOD AVE STE 200","ANAHEIM","CA","92805-6809","L22","L","1101 E ORANGEWOOD AVE STE 200,ANAHEIM,92805-6809"
953528706,"CAMBODIAN ASSOCIATION OF AMERICA","2390 PACIFIC AVE","LONG BEACH","CA","90806-3051","P84","P","2390 PACIFIC AVE,LONG BEACH,90806-3051"
953530049,"TAIWANESE AMERICAN SENIORS ASSOCIATION OF SOUTHERN CALIFORNIA","3711 COGSWELL RD APT 116","EL MONTE","CA","91732-2887","P81","P","3711 COGSWELL RD APT 116,EL MONTE,91732-2887"
953532351,"CENTER FOR THE PACIFIC ASIAN FAMILY INC","3424 WILSHIRE BLVD STE 1000","LOS ANGELES","CA","90010-2261","L41","L","3424 WILSHIRE BLVD STE 1000,LOS ANGELES,90010-2261"
953663674,"KOREAN AMERICAN UNITED FOUNDATION","981 S WESTERN AVE STE 101","LOS ANGELES","CA","90006-1080","P1284","P","981 S WESTERN AVE STE 101,LOS ANGELES,90006-1080"
953741966,"INDOCHINESE MUSLIM REFUGEE ASSOCIATION OF THE UNITED STATES","1610 E 1ST ST","SANTA ANA","CA","92701-7315","P84","P","1610 E 1ST ST,SANTA ANA,92701-7315"
953779389,"KOREATOWN YOUTH AND COMMUNITY CENTER INC","3727 W 6TH ST STE 300","LOS ANGELES","CA","90020-5108","P84","P","3727 W 6TH ST STE 300,LOS ANGELES,90020-5108"
953782164,"SOUTHERN INDIAN HEALTH COUNCIL","4058 WILLOWS RD","ALPINE","CA","91901-1668","E32","E","4058 WILLOWS RD,ALPINE,91901-1668"
953839639,"MEXICAN LADIES SOCIAL CLUB OF SANTA MARIA INC","1094 BURLINGTON DR","SANTA MARIA","CA","93455-4168","N50","N","1094 BURLINGTON DR,SANTA MARIA,93455-4168"
953842560,"KOREAN FEDERATION OF LOS ANGELES","981 S WESTERN AVE","LOS ANGELES","CA","90006-1005","P84","P","981 S WESTERN AVE,LOS ANGELES,90006-1005"
953845827,"CHINESE GRACE MISSIONS INTERNATIONAL INC","2911 N ROCKMONT AVE","CLAREMONT","CA","91711-1643","P84","P","2911 N ROCKMONT AVE,CLAREMONT,91711-1643"
953849600,"RANCHO LOS AMIGOS FOUNDATION INC","7601 E IMPERIAL HWY TRAILER 1 P","DOWNEY","CA","90242-3456","E1186","E","7601 E IMPERIAL HWY TRAILER 1 P,DOWNEY,90242-3456"
953854152,"ASIAN AMERICANS ADVANCING JUSTICE LOS ANGELES","1145 WILSHIRE BLVD 2ND FLOOR","LOS ANGELES","CA","90017-1900","I80","I","1145 WILSHIRE BLVD 2ND FLOOR,LOS ANGELES,90017-1900"
953854831,"CAMBODIAN FAMILY","1626 E 4TH ST","SANTA ANA","CA","92701-5148","P84","P","1626 E 4TH ST,SANTA ANA,92701-5148"
953881333,"CLINICA MSR OSCAR A ROMERO","123 S ALVARADO ST","LOS ANGELES","CA","90057-2201","E32","E","123 S ALVARADO ST,LOS ANGELES,90057-2201"
953899329,"KOREAN AMERICAN FAMILY SERVICES INC","3727 W 6TH ST STE 320","LOS ANGELES","CA","90020-5108","P84","P","3727 W 6TH ST STE 320,LOS ANGELES,90020-5108"
953900336,"KOREAN FAMILY HOUSING CORPORATION","1444 N GRAND OAKS AVE","PASADENA","CA","91104-1906","L20","L","1444 N GRAND OAKS AVE,PASADENA,91104-1906"
954001945,"UNIFICATION OF DISABLED LATIN AMERICANS","PO BOX 75606","LOS ANGELES","CA","90075-0606","P80","P","PO BOX 75606,LOS ANGELES,90075-0606"
954074660,"KOREAN HEALTH EDUCATION INFORMATION AND RESEARCH CENTER","3727 W 6TH ST STE 210","LOS ANGELES","CA","90020-5108","E32","E","3727 W 6TH ST STE 210,LOS ANGELES,90020-5108"
954131307,"CENTRO COMUNITARIO SOL DEL VALLE COMMUNITY CENTER","10725 PENROSE ST","SUN VALLEY","CA","91352-2016","P28","P","10725 PENROSE ST,SUN VALLEY,91352-2016"
954150863,"FRIENDS OF CHINATOWN PUBLIC SAFETY ASSOCIATION","PO BOX 950","ALHAMBRA","CA","91802-0950","M11","M","PO BOX 950,ALHAMBRA,91802-0950"
954154009,"FRANK NIGRO COLUMBIAN FOUNDATION SUPPORTING PEOPLE WITH INTELLECTUA","PO BOX 2649","WEST COVINA","CA","91793-2649","P82","P","PO BOX 2649,WEST COVINA,91793-2649"
954177752,"ASIAN PACIFIC HEALTH CARE VENTURE INC","4216 FOUNTAIN AVENUE","LOS ANGELES","CA","90029-2256","L22","L","4216 FOUNTAIN AVENUE,LOS ANGELES,90029-2256"
954227375,"ASIAN PACIFIC AMERICAN DISPUTE RESOLUTION CENTER OF LOS ANGELES","1145 WILSHIRE BLVD NO 100","LOS ANGELES","CA","90017-1900","I51","I","1145 WILSHIRE BLVD NO 100,LOS ANGELES,90017-1900"
954269496,"KOREAN AMERICAN PHARMACIST ASSOCIATION OF CALIFORNIA","3810 WILSHIRE BLVD APT 1108","LOS ANGELES","CA","90010-3218","E03","E","3810 WILSHIRE BLVD APT 1108,LOS ANGELES,90010-3218"
954273943,"KOREAN CATHOLIC RENEWAL MOVEMENT OF SOUTHERN CALIFORNIA","1305 WATER ST","BAKERSFIELD","CA","93305-2832","P28","P","1305 WATER ST,BAKERSFIELD,93305-2832"
954314225,"UNITED LATINO FUND","1125 E BROADWAY NO 258","GLENDALE","CA","91205-1315","P12","P","1125 E BROADWAY NO 258,GLENDALE,91205-1315"
954333463,"HONG KONG FORUM LOS ANGELES INC","1439 FOLKSTONE AVE","HACIENDA HTS","CA","91745-2512","P84","P","1439 FOLKSTONE AVE,HACIENDA HTS,91745-2512"
954344878,"ASOCIACION LATINO AMERICANA DE CIRUJANOS DE CATARATA Y SEGMENTO","2446 W WHITTIER BLVD","MONTEBELLO","CA","90640-3041","G19","G","2446 W WHITTIER BLVD,MONTEBELLO,90640-3041"
954358513,"MEXICAN AMERICAN BAR FOUNDATION","PO BOX 862127","LOS ANGELES","CA","90086-2127","N30","N","PO BOX 862127,LOS ANGELES,90086-2127"
954388270,"AMERICAN-CHINESE SENIOR CITIZEN SERVICE CENTER","3215 SANTA ANITA AVE","EL MONTE","CA","91733-1359","P84","P","3215 SANTA ANITA AVE,EL MONTE,91733-1359"
954410105,"GUAM COMMUNICATIONS NETWORK","1019 IMPERIAL BEACH BLVD APT 1","IMPERIAL BCH","CA","91932-2831","P84","P","1019 IMPERIAL BEACH BLVD APT 1,IMPERIAL BCH,91932-2831"
954417288,"HISPANIC OUTREACH TASKFORCE","7056 S WASHINGTON AVE STE 212","WHITTIER","CA","90602-1415","P30","P","7056 S WASHINGTON AVE STE 212,WHITTIER,90602-1415"
954440752,"L A CHINATOWN FIRECRACKER RUN COMMITTEE INC","PO BOX 86132","LOS ANGELES","CA","90086-0132","N70","N","PO BOX 86132,LOS ANGELES,90086-0132"
954485956,"NINOS LATINOS UNIDOS FOSTER FAMILY AGENCY","9246 ALONDRA BLVD","BELLFLOWER","CA","90706-4210","P32","P","9246 ALONDRA BLVD,BELLFLOWER,90706-4210"
954494661,"FUTURO INFANTIL HISPANO","2227 E GARVEY AVE N","WEST COVINA","CA","91791-1500","P30","P","2227 E GARVEY AVE N,WEST COVINA,91791-1500"
954526760,"NUEVO AMANECER LATINO CHILDRENS SERVICES","5400 POMONA BLVD","LOS ANGELES","CA","90022-1717","P32","P","5400 POMONA BLVD,LOS ANGELES,90022-1717"
954531663,"GLOBAL DENTAL ALLIANCE","1551 W REDONDO BEACH BLVD STE 101","GARDENA","CA","90247-3236","E30","E","1551 W REDONDO BEACH BLVD STE 101,GARDENA,90247-3236"
954563348,"EL CENTRO DE AYUDA","2130 EAST 1ST ST STE 110","LOS ANGELES","CA","90033-3958","F22","F","2130 EAST 1ST ST STE 110,LOS ANGELES,90033-3958"
954564739,"PACIFIC ASIAN COUNSELING SERVICES","8616 LA TIJERA BLVD STE 200","LOS ANGELES","CA","90045-3945","P40","P","8616 LA TIJERA BLVD STE 200,LOS ANGELES,90045-3945"
954573918,"INTERNATIONAL ASSOCIATION OF CHINESE MEDICINE","9127 VALLEY BLVD","ROSEMEAD","CA","91770-1919","G90","G","9127 VALLEY BLVD,ROSEMEAD,91770-1919"
954587747,"LATINO FAMILY INSTITUTE INC","1501 W CAMERON AVE STE 240","WEST COVINA","CA","91790-2733","P84","P","1501 W CAMERON AVE STE 240,WEST COVINA,91790-2733"
954661570,"CALIFORNIA TEAMSTERS HISPANIC CAUCUS","4666 MISSION GORGE PLACE","SAN DIEGO","CA","92120-4150","J40","J","4666 MISSION GORGE PLACE,SAN DIEGO,92120-4150"
954718145,"LOS AMIGOS BASEBALL ASSOCIATION OF SANTA MONICA","2633 LINCOLN BLVD","SANTA MONICA","CA","90405-4619","N63","N","2633 LINCOLN BLVD,SANTA MONICA,90405-4619"
954768205,"ABANDONED CHILDREN OF NICARAGUA FOUNDATION INC","17196 ATHOL ST","FONTANA","CA","92335-4802","I72","I","17196 ATHOL ST,FONTANA,92335-4802"
954814684,"CASA DE AMIGOS AFFORDABLE HOUSING INC","29700 WOODFORD TEHACHAPI RD","KEENE","CA","93531-8007","L21","L","29700 WOODFORD TEHACHAPI RD,KEENE,93531-8007"
954847500,"HAPPY VILLAGE","690 WILSHIRE PL","LOS ANGELES","CA","90005-3930","M24","M","690 WILSHIRE PL,LOS ANGELES,90005-3930"
956220754,"VENICE JAPANESE COMMUNITY CENTER","12448 BRADDOCK DR","LOS ANGELES","CA","90066-6814","P28","P","12448 BRADDOCK DR,LOS ANGELES,90066-6814"
980646542,"LATIN AMERICA LEUKEMIA NET LALNET","26504 PROVIDENCE CT","SANTA CLARITA","CA","91350-8557","G20","G","26504 PROVIDENCE CT,SANTA CLARITA,91350-8557"
680061411,"CAPITOL AREA INDIAN RESOURCES INC","3423 ARDEN WAY","SACRAMENTO","CA","95825-3216","P84","P","3423 ARDEN WAY,SACRAMENTO,95825-3216"
330004543,"FILIPINO AMERICAN SENIOR CITIZENS ASSOCIATION SAN DIEGO NORTH COUNTY CA INC","8460 MIRA MESA BLVD","SAN DIEGO","CA","92196-2422","P81","P","8460 MIRA MESA BLVD,SAN DIEGO,92196-2422"
262705762,"CENTRO DE REHABILITACION EBENEZER INC","624 S CHICAGO ST","LOS ANGELES","CA","90023-1214","E50","E","624 S CHICAGO ST,LOS ANGELES,90023-1214"
770382046,"FILIPINO YOUTH COALITION COMMUNITY SERVICES AND DEV OF STA CLARA CO INC","6927 BURNING TREE CT","SAN JOSE","CA","95122-1029","O01","O","6927 BURNING TREE CT,SAN JOSE,95122-1029"
942312757,"MEXICAN AMERICAN ADDICTION PROGRAM INC","4241 FLORIN RD STE 65","SACRAMENTO","CA","95823-2535","F20","F","4241 FLORIN RD STE 65,SACRAMENTO,95823-2535"
920194073,"SAN MATEO JAPANESE AMERICAN COMMUNITY CENTER","415 S CLAREMONT ST","SAN MATEO","CA","","P28","P","415 S CLAREMONT ST,SAN MATEO,"
392072292,"NATIONAL LATINO PEACE OFFICERS ASSOCIATION-SAN DIEGO METRO CHPTR","PO BOX 128025","SAN DIEGO","CA","92112-8025","I0360","I","PO BOX 128025,SAN DIEGO,92112-8025"
943198324,"VIETNAMESE COMMUNITY CENTER OF SAN FRANCISCO","764 GEARY ST","SAN FRANCISCO","CA","94109-7302","P84","P","764 GEARY ST,SAN FRANCISCO,94109-7302"
421599565,"ASIAN AMERICAN CANCER SUPPORT NETWORK","PO BOX 2919","SUNNYVALE","CA","94087-0919","G30","G","PO BOX 2919,SUNNYVALE,94087-0919"
262843980,"LATIN AMERICAN COMMUNITY CENTER","1906 E ANAHEIM ST","LONG BEACH","CA","","P28","P","1906 E ANAHEIM ST,LONG BEACH,"
465408967,"VIET RAINBOW OF ORANGE COUNTY","10352 WOODBURY RD","GARDEN GROVE","CA","92842-0002","P20","P","10352 WOODBURY RD,GARDEN GROVE,92842-0002"
271140885,"PROYECTO HERENCIA DE AMOR INC","3003 LEEWARD AVE APT 107","LOS ANGELES","CA","90005-1424","O50","O","3003 LEEWARD AVE APT 107,LOS ANGELES,90005-1424"
943152735,"HUONG VIET COMMUNITY CENTER","PO BOX 29936","OAKLAND","CA","94604-6036","P28","P","PO BOX 29936,OAKLAND,94604-6036"
943075783,"KOREAN AMERICAN COMMUNITY CENTER","745 BUCHANAN ST","SAN FRANCISCO","CA","94102-4163","P84","P","745 BUCHANAN ST,SAN FRANCISCO,94102-4163"
300137573,"PROYECTO DE COMPASION","9819 BISCAYANE DR","BAKERSFIELD","CA","93311-4600","P12","P","9819 BISCAYANE DR,BAKERSFIELD,93311-4600"
261036146,"NATIONAL LATINA-O LAW STUDENT ASSOCIATION","808 S VERMONT AVE STE 206","LOS ANGELES","CA","90005-1570","I03","I","808 S VERMONT AVE STE 206,LOS ANGELES,90005-1570"
731682075,"NICARAGUAN CHILDRENS FRIENDSHIP COMMITTEE","223 TINGLEY ST","SAN FRANCISCO","CA","94112-1937","P30","P","223 TINGLEY ST,SAN FRANCISCO,94112-1937"
475645901,"PROJECT NEPAL","1715 OCTAVIA ST","SAN FRANCISCO","CA","94109-4326","M12","M","1715 OCTAVIA ST,SAN FRANCISCO,94109-4326"
680559821,"LATIN AND AMERICAN SOCCER ASSOCIATION","125 W MISSION AVE","ESCONDIDO","CA","92025-1720","N64","N","125 W MISSION AVE,ESCONDIDO,92025-1720"
472673585,"LATINO FAMILY SERVICES","6616 LAGUNA BOULEVARD SUITE 124","ELK GROVE","CA","95758-5266","P40","P","6616 LAGUNA BOULEVARD SUITE 124,ELK GROVE,95758-5266"
273533864,"APOSTOLES DE LA SALUD INC","12833 HARBOR BLVD F3","GARDEN GROVE","CA","92840-5806","E70","E","12833 HARBOR BLVD F3,GARDEN GROVE,92840-5806"
941725018,"FAMILY BRIDGES INC","168 11TH ST","OAKLAND","CA","94607-4841","P84","P","168 11TH ST,OAKLAND,94607-4841"
811177743,"KOREAN AMERICAN TENNIS ASSOCIATION","109 S ALEXANDRIA AVE","LOS ANGELES","CA","90004-5409","N66","N","109 S ALEXANDRIA AVE,LOS ANGELES,90004-5409"
812022012,"KOREAN AMERICAN FESTIVAL FOUNDATION OF OC","9828 GARDEN GROVE BLVD STE 207","GARDEN GROVE","CA","92844-1640","N52","N","9828 GARDEN GROVE BLVD STE 207,GARDEN GROVE,92844-1640"
300138999,"SOUTHEAST ASIAN VISION EDUCATION","835 W 20TH ST","MERCED","CA","95340-3602","G41","G","835 W 20TH ST,MERCED,95340-3602"
43636446,"NATIONAL LATINO PEACE OFFICERS ASSOCIATION KINGS COUNTY CHAPTER","6395 NEWARK AVE","CORCORAN","CA","93212-9737","I60","I","6395 NEWARK AVE,CORCORAN,93212-9737"
472919952,"CLEFT PALATES IN VIETNAM INC","506 21ST ST","HUNTINGTN BCH","CA","92648-3303","G20","G","506 21ST ST,HUNTINGTN BCH,92648-3303"
272999852,"KOREAN COFFEE BREAK SMALL GROUP MINISTRY INTERNATIONAL","17532 EDGEWOOD LN","YORBA LINDA","CA","","P84","P","17532 EDGEWOOD LN,YORBA LINDA,"
330830060,"VIETNAMESE YOUTH AND FAMILY CENTER","766 S 2ND ST","SAN JOSE","CA","95112-5820","P84","P","766 S 2ND ST,SAN JOSE,95112-5820"
954232220,"DOWNEY LOS AMIGOS FOUNDATION","PO BOX 1052","DOWNEY","CA","90240-0052","P1220","P","PO BOX 1052,DOWNEY,90240-0052"
208398318,"US JAPAN ADVANCED SKILL TRAINING CENTER","386 BEECH AVENUE SUITE B7","TORRANCE","CA","90501-6202","J20","J","386 BEECH AVENUE SUITE B7,TORRANCE,90501-6202"
954490952,"AMIGOS SIN BARRERAS FRIENDS WITHOUT BARRIERS","555 ESPLANADE APT 419","REDONDO BEACH","CA","","G81","G","555 ESPLANADE APT 419,REDONDO BEACH,"
680678859,"KOREA YOGA INSTRUCTOR ASSOCIATION","2954 W 8TH ST STE 101","LOS ANGELES","CA","90005-1524","P50","P","2954 W 8TH ST STE 101,LOS ANGELES,90005-1524"
461071758,"V & P ES SALUD CORPORATION","801 N 2ND ST","ALHAMBRA","CA","91801-1358","E70","E","801 N 2ND ST,ALHAMBRA,91801-1358"
912148320,"KOREAN COMMUNITY SHERIFF AND POLICE AFFAIRS","8370 INDEPENDENCE AVE","CANOGA PARK","CA","","I60","I","8370 INDEPENDENCE AVE,CANOGA PARK,"
262764917,"VIETNAMESE DISABLED ORPHANS FUND","4372 TECUMSEH WAY","SAN DIEGO","CA","92117-2828","P12","P","4372 TECUMSEH WAY,SAN DIEGO,92117-2828"
455567456,"AMERICAN DIABETES RESEARCH AND TREATMENT FUND","773 GRANT ST","CALEXICO","CA","92231-3493","G70","G","773 GRANT ST,CALEXICO,92231-3493"
811614406,"WORLD GENERAL UNION OF DOCTORS AND HERBALISTS OF TRADITIONAL CHINESE","3042 S HACIENDA BLVD","HACIENDA HTS","CA","91745-5313","E03","E","3042 S HACIENDA BLVD,HACIENDA HTS,91745-5313"
954021756,"ASIAN AMERICAN CHRISTIAN COUNSELING SERVICES INC","2550 W MAIN ST STE 202","ALHAMBRA","CA","91801-7003","F32","F","2550 W MAIN ST STE 202,ALHAMBRA,91801-7003"
200501101,"CHINESE SERVICE CENTER OF SAN DIEGO","5075 RUFFIN RD STE A","SAN DIEGO","CA","92123-1698","P20","P","5075 RUFFIN RD STE A,SAN DIEGO,92123-1698"
10628124,"LATINA BREAST CANCER AGENCY","4271 MISSION STREET 2ND FLOOR","SAN FRANCISCO","CA","94112-1540","G32","G","4271 MISSION STREET 2ND FLOOR,SAN FRANCISCO,94112-1540"
753028625,"GLOBAL UNIFIED CHINESE ORGANIZATION FROM VIETNAM CAMBODIA AND LAOS","1900 TYLER AVE","S EL MONTE","CA","91733-3612","P84","P","1900 TYLER AVE,S EL MONTE,91733-3612"
815297011,"ASIAN AMERICAN PUBLIC SAFETY SERVICE CENTER","6936 BRIGGS DR","SACRAMENTO","CA","95828-2211","I20","I","6936 BRIGGS DR,SACRAMENTO,95828-2211"
330457856,"CHILD ABUSE INTERVENTION FUND","5036 OLD CLIFFS RD","SAN DIEGO","CA","92120-1151","P30","P","5036 OLD CLIFFS RD,SAN DIEGO,92120-1151"
450518959,"MYANMAR COMMUNITY OF THE UNITED STATES OF AMERICA INC","1178 SOUTHGATE AVE","DALY CITY","CA","94015-3838","P80","P","1178 SOUTHGATE AVE,DALY CITY,94015-3838"
952786341,"HOMEMAKER SERVICE OF INDIAN WELLS VALLEY","1743 W WARD AVE","RIDGECREST","CA","93555-8935","P44","P","1743 W WARD AVE,RIDGECREST,93555-8935"
453589057,"CENTRO DE AYUDA LEGAL PARA IMIGRANTES OF MOUNTAIN VIEW","1125 BENTON ST","SANTA CLARA","CA","95050-4802","I80","I","1125 BENTON ST,SANTA CLARA,95050-4802"
943165929,"NATIONAL LATINO PEACE OFFICERS ASSOCIATION","PO BOX 1856","ALPINE","CA","91903-1856","I0360","I","PO BOX 1856,ALPINE,91903-1856"
453598539,"KOREA PILATES INSTRUCTOR ASSOCIATION","2954 W 8TH ST","LOS ANGELES","CA","90005-1524","N99","N","2954 W 8TH ST,LOS ANGELES,90005-1524"
330085378,"ORANGE COUNTY KOREAN CHRISTIAN MEN S ASSOCIATION","2247 S GRAND AVE","SANTA ANA","CA","92844-1639","P84","P","2247 S GRAND AVE,SANTA ANA,92844-1639"
931102854,"ASIAN PACIFIC WOMENS CENTER INC","244 S SAN PEDRO ST STE 504","LOS ANGELES","CA","","L40","L","244 S SAN PEDRO ST STE 504,LOS ANGELES,"
954637660,"KOREAN AMERICAN SENIOR COOPERATION CENTER","18931 E COLIMA RD STE B","ROWLAND HEIGHTS","CA","91748-2942","L22","L","18931 E COLIMA RD STE B,ROWLAND HEIGHTS,91748-2942"
943054877,"ASIAN ADVISORY COMMITTEE ON CRIME","360 A 8TH ST","OAKLAND","CA","94607-4241","I20","I","360 A 8TH ST,OAKLAND,94607-4241"
810754552,"CAREER TAIWAN USA ASSOCIATION","560 W MAIN ST STE C814","ALHAMBRA","CA","91801-3374","J20","J","560 W MAIN ST STE C814,ALHAMBRA,91801-3374"
463832070,"HOSPITAL FOR HOPE INDIA INC","240 DELPHI CIR","LOS ALTOS","CA","94022-1250","E20","E","240 DELPHI CIR,LOS ALTOS,94022-1250"
942682548,"IMMIGRANT RESETTLEMENT & CULTURAL CENTER INC","3017 OAKBRIDGE DR","SAN JOSE","CA","95121-1711","P84","P","3017 OAKBRIDGE DR,SAN JOSE,95121-1711"
352443596,"TAP THE CHIEN SI VIET-NAM CONG-HOA HAI NGOAI","2021 SEMINOLE","TUSTIN","CA","92782-8383","L50","L","2021 SEMINOLE,TUSTIN,92782-8383"
942655527,"MARIN STATE PARKS ASSOCIATION","PO BOX 285","NOVATO","CA","94948-0285","N32","N","PO BOX 285,NOVATO,94948-0285"
330497625,"LITTLE LEAGUE BASEBALL INC 4052204 EL CENTRO LL","PO BOX 26","EL CENTRO","CA","92244-0026","N63","N","PO BOX 26,EL CENTRO,92244-0026"
954302475,"FEDERATION FOR A DEMOCRATIC CHINA","488 E OCEAN BLVD UNIT 1416","LONG BEACH","CA","","O40","O","488 E OCEAN BLVD UNIT 1416,LONG BEACH,"
680084536,"LAKE COUNTY CITIZENS COMMITTEE ON INDIAN AFFAIRS INC","1002 SODA BAY RD","LAKE PORT","CA","95453-0000","P84","P","1002 SODA BAY RD,LAKE PORT,95453-0000"
208243976,"MYANMAR CHILDRENS FOUNDATION","216 F STREET BOX 57","DAVIS","CA","95616-4515","P73","P","216 F STREET BOX 57,DAVIS,95616-4515"
953685388,"VIETNAMESE LEAGUE OF ORANGE COUNTY","13139 HARBOR BLVD 2ND FLOOR","GARDEN GROVE","CA","92843-1717","P84","P","13139 HARBOR BLVD 2ND FLOOR,GARDEN GROVE,92843-1717"
330810652,"LATINO CITY EMPLOYEES ASSOCIATION","525 B ST","SAN DIEGO","CA","92101-4401","P20","P","525 B ST,SAN DIEGO,92101-4401"
460926199,"CHINESE AMERICAN INSTITUTE FOR EMPOWERMENT","15 SOUTHGATE AVE","DALY CITY","CA","","P84","P","15 SOUTHGATE AVE,DALY CITY,"
953397369,"SAN DIEGO AMERICAN INDIAN HEALTH CENTER","2602 1ST AVE STE 105","SAN DIEGO","CA","92103-6529","E32","E","2602 1ST AVE STE 105,SAN DIEGO,92103-6529"
263320879,"ASIAN PACIFIC HEALTH FOUNDATION","4445 EASTGATE MALL","SAN DIEGO","CA","92121-1979","E11","E","4445 EASTGATE MALL,SAN DIEGO,92121-1979"
237279074,"UNION OF PAN ASIAN COMMUNITIES","1031 25TH ST","SAN DIEGO","CA","92102-2102","P20","P","1031 25TH ST,SAN DIEGO,92102-2102"
680015780,"LAO KHMU ASSOCIATION INC","1044 N EL DORADO ST","STOCKTON","CA","95202-1304","P84","P","1044 N EL DORADO ST,STOCKTON,95202-1304"
510137365,"LATIN AMERICAN CLUB OF STOCKTON INC","PO BOX 1302","STOCKTON","CA","95201-1302","N50","N","PO BOX 1302,STOCKTON,95201-1302"
680599072,"MENTOR A MINOR FOUNDATION","1013 BATH ST","SANTA BARBARA","CA","","P20","P","1013 BATH ST,SANTA BARBARA,"
453952989,"IGLESIA DE CRISTO ARMONIA MINISTERIO LLAMADA FINAL INC IGLESIA DE CRISTO ARMONIA","1654 DAHLIA AVE","SAN DIEGO","CA","92102-4526","K26","K","1654 DAHLIA AVE,SAN DIEGO,92102-4526"
464107589,"LATINO SERVICE PROVIDERS","930 SHILOH ROAD BLDG 40 STE A","WINDSOR","CA","95492-6619","P84","P","930 SHILOH ROAD BLDG 40 STE A,WINDSOR,95492-6619"
237052541,"CALIFORNIA RURAL INDIAN HEALTH BOARD INC","1020 SUNDOWN WAY","ROSEVILLE","CA","95661-4473","E30","E","1020 SUNDOWN WAY,ROSEVILLE,95661-4473"
954348471,"PUEBLO Y SALUD INC","15501 SF MISSION BLVD 312","MISSION HILLS","CA","91345-0000","F21","F","15501 SF MISSION BLVD 312,MISSION HILLS,91345-0000"
262203873,"SUSTAINABLE BOLIVIA","1374 DANIELSON RD","SANTA BARBARA","CA","93108-2857","N68","N","1374 DANIELSON RD,SANTA BARBARA,93108-2857"
954588504,"FOREVER LOVE FOUNDATION FOR MEDICAL AID TO THAILAND","C/O DAVID RICHARD 11735 MOORPARK","STUDIO CITY","CA","94506-4617","E11","E","C/O DAVID RICHARD 11735 MOORPARK,STUDIO CITY,94506-4617"
273666589,"VIETNAMESE AMERICAN BAR ASSOCIATION OF NORTHERN CALIFORNIA LAW FOUNDA VABANC LAW FOUNDATION","722 N FIRST STREET","SAN JOSE","CA","95112-0000","I03","I","722 N FIRST STREET,SAN JOSE,95112-0000"
202761167,"KOREA TOWN SENIOR AND COMMUNITY CENTER INC","965 S NORMANDIE AVE 200","LOS ANGELES","CA","90006-1495","P81","P","965 S NORMANDIE AVE 200,LOS ANGELES,90006-1495"
264061157,"GLOBAL ASIAN INDIAN MINISTRIES","1910 W PALMYRA AVE UNIT 89","ORANGE","CA","92868-3754","P84","P","1910 W PALMYRA AVE UNIT 89,ORANGE,92868-3754"
264779374,"IGLESIA DE CRISTO MIES MINISTERIOS LLAMADA FINAL","1336 LAUREL ST","GRIDLEY","CA","95948-2952","K26","K","1336 LAUREL ST,GRIDLEY,95948-2952"
272168959,"CAMBODIA ACADEMY AT MONGKOL BOREI","1534 PLAZA LN","BURLINGAME","CA","94010-3204","P84","P","1534 PLAZA LN,BURLINGAME,94010-3204"
272836526,"BURMA FAMILY REFUGEE NETWORK","1811 11TH AVE","OAKLAND","CA","94606-3103","P84","P","1811 11TH AVE,OAKLAND,94606-3103"
311695419,"LATINO COALITION FOUNDATION","100 SPECTRUM CENTER DRIVE","IRVINE","CA","92618-4962","J05","J","100 SPECTRUM CENTER DRIVE,IRVINE,92618-4962"
330321448,"DAMAS LATINAS DE SAN DIEGO","PO BOX 81981","SAN DIEGO","CA","92138-1981","P20","P","PO BOX 81981,SAN DIEGO,92138-1981"
330740149,"THE KOREAN AMERICAN FEDERATION OF ORANGE COUNTY","9876 GARDEN GROVE BLVD","GARDEN GROVE","CA","92844-1643","P84","P","9876 GARDEN GROVE BLVD,GARDEN GROVE,92844-1643"
330953529,"ORANGE COUNTY KOREAN-AMERICAN HEALTH INFORMATION & EDUCATION CTR","9636 GARDEN GROVE BLVD","GARDEN GROVE","CA","92844-1530","E20","E","9636 GARDEN GROVE BLVD,GARDEN GROVE,92844-1530"
364026909,"NORTH AMERICA TAIWANESE MEDICAL ASSOCIATION FOUNDATION","7923 GARDEN GROVE BLVD","GARDEN GROVE","CA","92841-4225","G11","G","7923 GARDEN GROVE BLVD,GARDEN GROVE,92841-4225"
453063350,"BANGLADESH MEDICAL ASSOCIATION OF NORTH AMERICA - CA","400 LISTOWE DR","FOLSOM","CA","95630-6202","G90","G","400 LISTOWE DR,FOLSOM,95630-6202"
460744594,"CHINESE AMERICAN PARENTS ASSOCIATION-DIAMOND BAR","21400 PATHFINDER RD","DIAMOND BAR","CA","91765-2747","I03","I","21400 PATHFINDER RD,DIAMOND BAR,91765-2747"
474003566,"AMERICA TRADITIONAL CHINESE MEDICINE INSTITUTE","20955 PATHFINDER RD STE 100 # 19","DIAMOND BAR","CA","91765-4029","E31","E","20955 PATHFINDER RD STE 100 # 19,DIAMOND BAR,91765-4029"
475630420,"INTERNATIONAL SHARING TRADITIONAL CHINESE MEDICINE FOUNDATION","31471 MEADOWBROOK AVE","HAYWARD","CA","94544-7613","E70","E","31471 MEADOWBROOK AVE,HAYWARD,94544-7613"
510173831,"KOREAN CENTER INCORPORATED","1362 POST ST","SAN FRANCISCO","CA","94109-6605","P84","P","1362 POST ST,SAN FRANCISCO,94109-6605"
510203956,"ASSOCIATION OF CULTURAL AND SOCIAL ADVANCEMENT FOR VIETNAMESE","145 CARMELLRA AVE","REDWOOD CITY","CA","94061-0000","P84","P","145 CARMELLRA AVE,REDWOOD CITY,94061-0000"
680004000,"NATIONAL INDIAN JUSTICE CENTER INC","5250 AERO DR","SANTA ROSA","CA","95403-8069","I99","I","5250 AERO DR,SANTA ROSA,95403-8069"
770346861,"TOLOSA CHILDRENS DENTAL CENTER","717 WALNUT DR","PASO ROBLES","CA","93446-2315","P30","P","717 WALNUT DR,PASO ROBLES,93446-2315"
811923562,"VIETNAMESE EVANGELICAL MISSIONARY FELLOWSHIP","12739 BIOLA AVE","LA MIRADA","CA","90638-2158","P50","P","12739 BIOLA AVE,LA MIRADA,90638-2158"
912153998,"BAY AREA ASIAN SPORTS","PO BOX 31129","SAN FRANCISCO","CA","94131-0129","N62","N","PO BOX 31129,SAN FRANCISCO,94131-0129"
942299959,"SAN BENITO HEALTH FOUNDATION","351 FELICE DR","HOLLISTER","CA","95023-3361","E11","E","351 FELICE DR,HOLLISTER,95023-3361"
942996952,"CENTRO SOCIALMONSENHOR JULIO A MARTINS FOUNDATION","1164 A ST","HAYWARD","CA","94541-4114","P33","P","1164 A ST,HAYWARD,94541-4114"
943124000,"AMERICAN ASSOCIATION OF PHYSICIANS OF INDIAN ORIGIN INC","4677 OLD IRONSIDES DR","SANTA CLARA","CA","95054-1809","E03","E","4677 OLD IRONSIDES DR,SANTA CLARA,95054-1809"
943227001,"SACRAMENTO ASIAN SPORTS FOUNDATION","9040 HIGH TECH CT","ELK GROVE","CA","95758-6482","N1130","N","9040 HIGH TECH CT,ELK GROVE,95758-6482"
943249259,"REVIVAL CHINESE MINISTRIES INTERNATIONAL","3295 SCHOOL ST","OAKLAND","CA","94602-3638","P84","P","3295 SCHOOL ST,OAKLAND,94602-3638"
943357710,"ASIAN PACIFIC AMERICAN COMMUNITY CENTER","50 RAYMOND AVE","SAN FRANCISCO","CA","94134-2308","P28","P","50 RAYMOND AVE,SAN FRANCISCO,94134-2308"
952916028,"JAPANESE HOME FOR THE AGED","420 E 3RD ST STE 1000","LOS ANGELES","CA","90013-1648","L22","L","420 E 3RD ST STE 1000,LOS ANGELES,90013-1648"
953714064,"FILIPINO-AMERICAN SERVICE GROUP INC","135 N PARK VIEW ST","LOS ANGELES","CA","90026-5215","P85","P","135 N PARK VIEW ST,LOS ANGELES,90026-5215"
262949706,"LATINO BUSINESS CHAMBER OF GREATER LOS ANGELES FOUNDATION INC","333 S GRAND AVE STE 3310","LOS ANGELES","CA","90071-1538","P80","P","333 S GRAND AVE STE 3310,LOS ANGELES,90071-1538"
331213363,"DRISTI NEPAL INC","4730 LA VILLA MARINA UNIT B","MARINA DL REY","CA","90292-7027","F22","F","4730 LA VILLA MARINA UNIT B,MARINA DL REY,90292-7027"
770494911,"VIETNAMESE AMERICAN COMMUNITY OF NORTHERN CA","1141 E WILLIAM ST","SAN JOSE","CA","95116-3114","P84","P","1141 E WILLIAM ST,SAN JOSE,95116-3114"
273043909,"ASOCIATION GLOBAL DE POLICIAS DE INVESTIGACIONES DEL PERU INC","PO BOX 5843","BUENA PARK","CA","90622-5843","I12","I","PO BOX 5843,BUENA PARK,90622-5843"
461815931,"FREMONT INDO AMERICAN SENIORS ASSOCIATION","38790 STONINGTON TER","FREMONT","CA","94536-4278","P81","P","38790 STONINGTON TER,FREMONT,94536-4278"
237401745,"FILIPINO AMERICAN COMMUNITY OF FAIRFIELD SUISUN AND VACAVILLE INC","PO BOX 316","FAIRFIELD","CA","94533-0031","N52","N","PO BOX 316,FAIRFIELD,94533-0031"
954296388,"CHINESE MISSION MINISTRY","21171 SAN MIGUEL","MISSION VIEJO","CA","","P84","P","21171 SAN MIGUEL,MISSION VIEJO,"
300009076,"KOREATOWN SENIOR CENTER","3407 W 6TH ST STE 801","LOS ANGELES","CA","","P81","P","3407 W 6TH ST STE 801,LOS ANGELES,"
452815959,"KOREAN AMERICAN PSYCHOLOGICAL ASSOCIATION","3727 W 6TH ST STE 507","LOS ANGELES","CA","90020-5110","F0380","F","3727 W 6TH ST STE 507,LOS ANGELES,90020-5110"
954384765,"EAST L A CHINESE EVERSPRING SENIOR ASSOCIATION","18738 COLIMA RD STE C","ROWLAND HGHTS","CA","91748-2981","P81","P","18738 COLIMA RD STE C,ROWLAND HGHTS,91748-2981"
942171008,"LATINO COMMISSION ON ALCOHOL AND DRUG ABUSE OF ALAMEDA COUNTY","1319 FRUITVALE AVE","OAKLAND","CA","","F21","F","1319 FRUITVALE AVE,OAKLAND,"
954000291,"UNIFIED VIETNAMESE COMMUNITY COUNCIL","238 S ASHDALE ST","W COVINA","CA","91790-0000","P84","P","238 S ASHDALE ST,W COVINA,91790-0000"
273032438,"CENTRO COMUNITARIO LATINO","864 FAIRWAY DR","COLTON","CA","92324-3131","P20","P","864 FAIRWAY DR,COLTON,92324-3131"
931195514,"LATINO BEHAVIORAL HEALTH INSTITUTE","9820 WOODMAN AVE","ARLETA","CA","","P84","P","9820 WOODMAN AVE,ARLETA,"
272420622,"ORANGE COUNTY ASIAN POLICE OFFICERS ASSOCIATION INC","PO BOX 426","WESTMINSTER","CA","","I0360","I","PO BOX 426,WESTMINSTER,"
680282356,"CASA DE NINOS GROUP HOME INC","1519 GONDOLA CT","STOCKTON","CA","95207-6012","P70","P","1519 GONDOLA CT,STOCKTON,95207-6012"
942340155,"CENTRO LA FAMILIA DE FRESNO INC","PO BOX 1115","MADERA","CA","93639-1115","P28","P","PO BOX 1115,MADERA,93639-1115"
510654559,"LATINO INSTITUTE FOR CORPORATE INCLUSION","106 S MENTOR AVE STE 200","PASADENA","CA","91106-2931","P84","P","106 S MENTOR AVE STE 200,PASADENA,91106-2931"
460569148,"LATINO PEACE OFFICERS ACCOCIATION INLAND EMPIRE CHAPTER CA INC","PO BOX 4449","ONTARIO","CA","91761-0807","I60","I","PO BOX 4449,ONTARIO,91761-0807"
800062567,"LATINO INITIATIVES FOR THE NEW CENTURY INC","5400 E OLYMPIC BLVD","LOS ANGELES","CA","","P99","P","5400 E OLYMPIC BLVD,LOS ANGELES,"
453638574,"SIGHT AND LIGHT INDIA MINISTRIES","2937 CIMMARON LN","FULLERTON","CA","92835-3145","G41","G","2937 CIMMARON LN,FULLERTON,92835-3145"
203628088,"AMIGOS DE CHOCOLA HILL JOHN D EXEC OFFICER","455 CHAMPLAIN DR","CLAREMONT","CA","91711-2754","I60","I","455 CHAMPLAIN DR,CLAREMONT,91711-2754"
237336128,"MEXICAN AMERICAN CONCILIO OF YOLO","PO BOX 879","WOODLAND","CA","95776-0879","P84","P","PO BOX 879,WOODLAND,95776-0879"
237010675,"JAPANESE AMERICAN COMMUNITY SERVICE INC ORANGE COUNTY","6181 DOVER DR","HUNTINGTN BCH","CA","92647-2448","P84","P","6181 DOVER DR,HUNTINGTN BCH,92647-2448"
270314699,"VIETNAM VILLAGE HEALTH","3418 CARDOZA CT","SAN JOSE","CA","95132-2006","P84","P","3418 CARDOZA CT,SAN JOSE,95132-2006"
208243703,"THE KOREAN YOUTH VISION CENTER OF SOUTHERN CALIFORNIA","7037 ORANGETHORPE AVE","BUENA PARK","CA","90621-3323","G41","G","7037 ORANGETHORPE AVE,BUENA PARK,90621-3323"
